{"type":"FeatureCollection","features":[{"type":"Feature","geometry":{"type":"Polygon","coordinates":[[[87.6,27.5],[88,27.5],[88,27.799999999999997],[87.6,27.799999999999997],[87.6,27.5]]]},"properties":{"name":"Taplejung","forestCoverHa":238873,"forestLossHa":14,"forestGainHa":564,"riskScore":12,"trend":0.8,"province":"Koshi"}},{"type":"Feature","geometry":{"type":"Polygon","coordinates":[[[87.1,27.25],[87.5,27.25],[87.5,27.549999999999997],[87.1,27.549999999999997],[87.1,27.25]]]},"properties":{"name":"Sankhuwasabha","forestCoverHa":225857,"forestLossHa":12,"forestGainHa":626,"riskScore":10,"trend":0.9,"province":"Koshi"}},{"type":"Feature","geometry":{"type":"Polygon","coordinates":[[[86.649999999999991,27.450000000000003],[87.05,27.450000000000003],[87.05,27.75],[86.649999999999991,27.75],[86.649999999999991,27.450000000000003]]]},"properties":{"name":"Solukhumbu","forestCoverHa":203404,"forestLossHa":9,"forestGainHa":752,"riskScore":8,"trend":1.1,"province":"Koshi"}},{"type":"Feature","geometry":{"type":"Polygon","coordinates":[[[86.5,27],[86.9,27],[86.9,27.299999999999997],[86.5,27.299999999999997],[86.5,27]]]},"properties":{"name":"Okhaldhunga","forestCoverHa":102246,"forestLossHa":19,"forestGainHa":345,"riskScore":20,"trend":0.3,"province":"Koshi"}},{"type":"Feature","geometry":{"type":"Polygon","coordinates":[[[86.7,26.700000000000003],[87.100000000000009,26.700000000000003],[87.100000000000009,27],[86.7,27],[86.7,26.700000000000003]]]},"properties":{"name":"Khotang","forestCoverHa":142901,"forestLossHa":21,"forestGainHa":408,"riskScore":25,"trend":0.3,"province":"Koshi"}},{"type":"Feature","geometry":{"type":"Polygon","coordinates":[[[87.1,26.9],[87.5,26.9],[87.5,27.2],[87.1,27.2],[87.1,26.9]]]},"properties":{"name":"Bhojpur","forestCoverHa":120837,"forestLossHa":17,"forestGainHa":408,"riskScore":18,"trend":0.4,"province":"Koshi"}},{"type":"Feature","geometry":{"type":"Polygon","coordinates":[[[87.3,27],[87.7,27],[87.7,27.299999999999997],[87.3,27.299999999999997],[87.3,27]]]},"properties":{"name":"Dhankuta","forestCoverHa":119048,"forestLossHa":19,"forestGainHa":408,"riskScore":14,"trend":0.4,"province":"Koshi"}},{"type":"Feature","geometry":{"type":"Polygon","coordinates":[[[87.5,27.1],[87.9,27.1],[87.9,27.4],[87.5,27.4],[87.5,27.1]]]},"properties":{"name":"Terhathum","forestCoverHa":96633,"forestLossHa":17,"forestGainHa":376,"riskScore":16,"trend":0.4,"province":"Koshi"}},{"type":"Feature","geometry":{"type":"Polygon","coordinates":[[[87.8,26.9],[88.2,26.9],[88.2,27.2],[87.8,27.2],[87.8,26.9]]]},"properties":{"name":"Panchthar","forestCoverHa":156967,"forestLossHa":17,"forestGainHa":438,"riskScore":22,"trend":0.5,"province":"Koshi"}},{"type":"Feature","geometry":{"type":"Polygon","coordinates":[[[87.85,26.6],[88.2,26.6],[88.2,26.9],[87.85,26.9],[87.85,26.6]]]},"properties":{"name":"Ilam","forestCoverHa":171383,"forestLossHa":21,"forestGainHa":501,"riskScore":30,"trend":0.6,"province":"Koshi"}},{"type":"Feature","geometry":{"type":"Polygon","coordinates":[[[87.85,26.36],[88.2,26.36],[88.2,26.6],[87.85,26.6],[87.85,26.36]]]},"properties":{"name":"Jhapa","forestCoverHa":54228,"forestLossHa":121,"forestGainHa":157,"riskScore":83,"trend":-1.4,"province":"Koshi"}},{"type":"Feature","geometry":{"type":"Polygon","coordinates":[[[87.3,26.4],[87.7,26.4],[87.7,26.7],[87.3,26.7],[87.3,26.4]]]},"properties":{"name":"Morang","forestCoverHa":70679,"forestLossHa":135,"forestGainHa":188,"riskScore":81,"trend":-1.2,"province":"Koshi"}},{"type":"Feature","geometry":{"type":"Polygon","coordinates":[[[87,26.36],[87.4,26.36],[87.4,26.6],[87,26.6],[87,26.36]]]},"properties":{"name":"Sunsari","forestCoverHa":44337,"forestLossHa":107,"forestGainHa":125,"riskScore":86,"trend":-1.4,"province":"Koshi"}},{"type":"Feature","geometry":{"type":"Polygon","coordinates":[[[86.55,26.36],[86.95,26.36],[86.95,26.6],[86.55,26.6],[86.55,26.36]]]},"properties":{"name":"Saptari","forestCoverHa":33849,"forestLossHa":97,"forestGainHa":94,"riskScore":85,"trend":-1.5,"province":"Koshi"}},{"type":"Feature","geometry":{"type":"Polygon","coordinates":[[[86.35,26.6],[86.75,26.6],[86.75,26.9],[86.35,26.9],[86.35,26.6]]]},"properties":{"name":"Udayapur","forestCoverHa":146622,"forestLossHa":42,"forestGainHa":313,"riskScore":36,"trend":0.1,"province":"Koshi"}},{"type":"Feature","geometry":{"type":"Polygon","coordinates":[[[86.05,26.36],[86.45,26.36],[86.45,26.6],[86.05,26.6],[86.05,26.36]]]},"properties":{"name":"Siraha","forestCoverHa":29324,"forestLossHa":88,"forestGainHa":63,"riskScore":88,"trend":-1.6,"province":"Madhesh"}},{"type":"Feature","geometry":{"type":"Polygon","coordinates":[[[85.55,26.36],[85.95,26.36],[85.95,26.6],[85.55,26.6],[85.55,26.36]]]},"properties":{"name":"Dhanusha","forestCoverHa":38023,"forestLossHa":93,"forestGainHa":94,"riskScore":69,"trend":-1.3,"province":"Madhesh"}},{"type":"Feature","geometry":{"type":"Polygon","coordinates":[[[85.149999999999991,26.36],[85.55,26.36],[85.55,26.6],[85.149999999999991,26.6],[85.149999999999991,26.36]]]},"properties":{"name":"Mahottari","forestCoverHa":24554,"forestLossHa":79,"forestGainHa":63,"riskScore":72,"trend":-1.5,"province":"Madhesh"}},{"type":"Feature","geometry":{"type":"Polygon","coordinates":[[[84.75,26.36],[85.15,26.36],[85.15,26.6],[84.75,26.6],[84.75,26.36]]]},"properties":{"name":"Sarlahi","forestCoverHa":32656,"forestLossHa":74,"forestGainHa":94,"riskScore":38,"trend":-1.2,"province":"Madhesh"}},{"type":"Feature","geometry":{"type":"Polygon","coordinates":[[[84.35,26.36],[84.75,26.36],[84.75,26.6],[84.35,26.6],[84.35,26.36]]]},"properties":{"name":"Rautahat","forestCoverHa":29324,"forestLossHa":70,"forestGainHa":50,"riskScore":84,"trend":-1.3,"province":"Madhesh"}},{"type":"Feature","geometry":{"type":"Polygon","coordinates":[[[84.85,26.5],[85.25,26.5],[85.25,26.799999999999997],[84.85,26.799999999999997],[84.85,26.5]]]},"properties":{"name":"Bara","forestCoverHa":35638,"forestLossHa":82,"forestGainHa":94,"riskScore":80,"trend":-1.2,"province":"Madhesh"}},{"type":"Feature","geometry":{"type":"Polygon","coordinates":[[[84.45,26.6],[84.850000000000009,26.6],[84.850000000000009,26.9],[84.45,26.9],[84.45,26.6]]]},"properties":{"name":"Parsa","forestCoverHa":86430,"forestLossHa":46,"forestGainHa":157,"riskScore":68,"trend":-0.4,"province":"Madhesh"}},{"type":"Feature","geometry":{"type":"Polygon","coordinates":[[[85.75,27.1],[86.15,27.1],[86.15,27.4],[85.75,27.4],[85.75,27.1]]]},"properties":{"name":"Sindhuli","forestCoverHa":169905,"forestLossHa":32,"forestGainHa":689,"riskScore":82,"trend":0.6,"province":"Bagmati"}},{"type":"Feature","geometry":{"type":"Polygon","coordinates":[[[85.8,27.450000000000003],[86.2,27.450000000000003],[86.2,27.75],[85.8,27.75],[85.8,27.450000000000003]]]},"properties":{"name":"Ramechhap","forestCoverHa":135110,"forestLossHa":23,"forestGainHa":564,"riskScore":28,"trend":0.6,"province":"Bagmati"}},{"type":"Feature","geometry":{"type":"Polygon","coordinates":[[[85.899999999999991,27.75],[86.3,27.75],[86.3,28.049999999999997],[85.899999999999991,28.049999999999997],[85.899999999999991,27.75]]]},"properties":{"name":"Dolakha","forestCoverHa":162399,"forestLossHa":21,"forestGainHa":658,"riskScore":32,"trend":0.7,"province":"Bagmati"}},{"type":"Feature","geometry":{"type":"Polygon","coordinates":[[[85.45,27.75],[85.850000000000009,27.75],[85.850000000000009,28.049999999999997],[85.45,28.049999999999997],[85.45,27.75]]]},"properties":{"name":"Sindhupalchok","forestCoverHa":172601,"forestLossHa":28,"forestGainHa":877,"riskScore":52,"trend":1,"province":"Bagmati"}},{"type":"Feature","geometry":{"type":"Polygon","coordinates":[[[85.3,27.4],[85.7,27.4],[85.7,27.7],[85.3,27.7],[85.3,27.4]]]},"properties":{"name":"Kavrepalanchok","forestCoverHa":115534,"forestLossHa":32,"forestGainHa":626,"riskScore":65,"trend":0.9,"province":"Bagmati"}},{"type":"Feature","geometry":{"type":"Polygon","coordinates":[[[85.11999999999999,27.5],[85.52,27.5],[85.52,27.799999999999997],[85.11999999999999,27.799999999999997],[85.11999999999999,27.5]]]},"properties":{"name":"Lalitpur","forestCoverHa":56678,"forestLossHa":28,"forestGainHa":376,"riskScore":54,"trend":0.5,"province":"Bagmati"}},{"type":"Feature","geometry":{"type":"Polygon","coordinates":[[[85.23,27.520000000000003],[85.63000000000001,27.520000000000003],[85.63000000000001,27.82],[85.23,27.82],[85.23,27.520000000000003]]]},"properties":{"name":"Bhaktapur","forestCoverHa":17009,"forestLossHa":19,"forestGainHa":188,"riskScore":58,"trend":0.3,"province":"Bagmati"}},{"type":"Feature","geometry":{"type":"Polygon","coordinates":[[[85.11999999999999,27.57],[85.52,27.57],[85.52,27.869999999999997],[85.11999999999999,27.869999999999997],[85.11999999999999,27.57]]]},"properties":{"name":"Kathmandu","forestCoverHa":43312,"forestLossHa":37,"forestGainHa":408,"riskScore":67,"trend":0.5,"province":"Bagmati"}},{"type":"Feature","geometry":{"type":"Polygon","coordinates":[[[84.95,27.75],[85.350000000000009,27.75],[85.350000000000009,28.049999999999997],[84.95,28.049999999999997],[84.95,27.75]]]},"properties":{"name":"Nuwakot","forestCoverHa":115884,"forestLossHa":23,"forestGainHa":658,"riskScore":35,"trend":0.9,"province":"Bagmati"}},{"type":"Feature","geometry":{"type":"Polygon","coordinates":[[[84.95,28],[85.350000000000009,28],[85.350000000000009,28.299999999999997],[84.95,28.299999999999997],[84.95,28]]]},"properties":{"name":"Rasuwa","forestCoverHa":147451,"forestLossHa":14,"forestGainHa":814,"riskScore":10,"trend":1.2,"province":"Bagmati"}},{"type":"Feature","geometry":{"type":"Polygon","coordinates":[[[84.7,27.700000000000003],[85.100000000000009,27.700000000000003],[85.100000000000009,28],[84.7,28],[84.7,27.700000000000003]]]},"properties":{"name":"Dhading","forestCoverHa":143173,"forestLossHa":26,"forestGainHa":752,"riskScore":48,"trend":0.9,"province":"Bagmati"}},{"type":"Feature","geometry":{"type":"Polygon","coordinates":[[[84.8,27.3],[85.2,27.3],[85.2,27.6],[84.8,27.6],[84.8,27.3]]]},"properties":{"name":"Makwanpur","forestCoverHa":198555,"forestLossHa":32,"forestGainHa":1065,"riskScore":64,"trend":1.1,"province":"Bagmati"}},{"type":"Feature","geometry":{"type":"Polygon","coordinates":[[[84.25,27.4],[84.65,27.4],[84.65,27.7],[84.25,27.7],[84.25,27.4]]]},"properties":{"name":"Chitwan","forestCoverHa":174494,"forestLossHa":37,"forestGainHa":939,"riskScore":46,"trend":1,"province":"Bagmati"}},{"type":"Feature","geometry":{"type":"Polygon","coordinates":[[[84.45,27.950000000000003],[84.850000000000009,27.950000000000003],[84.850000000000009,28.25],[84.45,28.25],[84.45,27.950000000000003]]]},"properties":{"name":"Gorkha","forestCoverHa":263685,"forestLossHa":14,"forestGainHa":1503,"riskScore":24,"trend":1.4,"province":"Gandaki"}},{"type":"Feature","geometry":{"type":"Polygon","coordinates":[[[84.149999999999991,28.05],[84.55,28.05],[84.55,28.35],[84.149999999999991,28.35],[84.149999999999991,28.05]]]},"properties":{"name":"Lamjung","forestCoverHa":177787,"forestLossHa":12,"forestGainHa":1127,"riskScore":15,"trend":1.4,"province":"Gandaki"}},{"type":"Feature","geometry":{"type":"Polygon","coordinates":[[[83.899999999999991,27.8],[84.3,27.8],[84.3,28.1],[83.899999999999991,28.1],[83.899999999999991,27.8]]]},"properties":{"name":"Tanahu","forestCoverHa":158989,"forestLossHa":17,"forestGainHa":939,"riskScore":20,"trend":1.3,"province":"Gandaki"}},{"type":"Feature","geometry":{"type":"Polygon","coordinates":[[[83.649999999999991,27.8],[84.05,27.8],[84.05,28.1],[83.649999999999991,28.1],[83.649999999999991,27.8]]]},"properties":{"name":"Syangja","forestCoverHa":116234,"forestLossHa":17,"forestGainHa":689,"riskScore":26,"trend":1.2,"province":"Gandaki"}},{"type":"Feature","geometry":{"type":"Polygon","coordinates":[[[83.78,28.05],[84.18,28.05],[84.18,28.35],[83.78,28.35],[83.78,28.05]]]},"properties":{"name":"Kaski","forestCoverHa":158289,"forestLossHa":14,"forestGainHa":877,"riskScore":18,"trend":1.2,"province":"Gandaki"}},{"type":"Feature","geometry":{"type":"Polygon","coordinates":[[[83.8,28.55],[84.2,28.55],[84.2,28.85],[83.8,28.85],[83.8,28.55]]]},"properties":{"name":"Manang","forestCoverHa":50054,"forestLossHa":3,"forestGainHa":157,"riskScore":5,"trend":0.5,"province":"Gandaki"}},{"type":"Feature","geometry":{"type":"Polygon","coordinates":[[[83.55,28.8],[83.95,28.8],[83.95,29.1],[83.55,29.1],[83.55,28.8]]]},"properties":{"name":"Mustang","forestCoverHa":23361,"forestLossHa":3,"forestGainHa":63,"riskScore":5,"trend":0.4,"province":"Gandaki"}},{"type":"Feature","geometry":{"type":"Polygon","coordinates":[[[83.35,28.35],[83.75,28.35],[83.75,28.65],[83.35,28.65],[83.35,28.35]]]},"properties":{"name":"Myagdi","forestCoverHa":203040,"forestLossHa":9,"forestGainHa":1253,"riskScore":12,"trend":1.4,"province":"Gandaki"}},{"type":"Feature","geometry":{"type":"Polygon","coordinates":[[[83.5,28.1],[83.9,28.1],[83.9,28.4],[83.5,28.4],[83.5,28.1]]]},"properties":{"name":"Parbat","forestCoverHa":92769,"forestLossHa":12,"forestGainHa":564,"riskScore":22,"trend":1.2,"province":"Gandaki"}},{"type":"Feature","geometry":{"type":"Polygon","coordinates":[[[83.399999999999991,27.85],[83.8,27.85],[83.8,28.15],[83.399999999999991,28.15],[83.399999999999991,27.85]]]},"properties":{"name":"Baglung","forestCoverHa":174105,"forestLossHa":14,"forestGainHa":1065,"riskScore":16,"trend":1.3,"province":"Gandaki"}},{"type":"Feature","geometry":{"type":"Polygon","coordinates":[[[83.899999999999991,27.55],[84.3,27.55],[84.3,27.85],[83.899999999999991,27.85],[83.899999999999991,27.55]]]},"properties":{"name":"Nawalpur","forestCoverHa":87195,"forestLossHa":28,"forestGainHa":438,"riskScore":34,"trend":0.7,"province":"Gandaki"}},{"type":"Feature","geometry":{"type":"Polygon","coordinates":[[[83.6,27.5],[84,27.5],[84,27.799999999999997],[83.6,27.799999999999997],[83.6,27.5]]]},"properties":{"name":"Nawalparasi","forestCoverHa":82217,"forestLossHa":51,"forestGainHa":313,"riskScore":74,"trend":0.2,"province":"Gandaki"}},{"type":"Feature","geometry":{"type":"Polygon","coordinates":[[[83.1,27.9],[83.5,27.9],[83.5,28.2],[83.1,28.2],[83.1,27.9]]]},"properties":{"name":"Gulmi","forestCoverHa":114445,"forestLossHa":26,"forestGainHa":689,"riskScore":50,"trend":1.1,"province":"Lumbini"}},{"type":"Feature","geometry":{"type":"Polygon","coordinates":[[[83.35,27.65],[83.75,27.65],[83.75,27.95],[83.35,27.95],[83.35,27.65]]]},"properties":{"name":"Palpa","forestCoverHa":125037,"forestLossHa":23,"forestGainHa":783,"riskScore":47,"trend":1.3,"province":"Lumbini"}},{"type":"Feature","geometry":{"type":"Polygon","coordinates":[[[82.95,27.75],[83.350000000000009,27.75],[83.350000000000009,28.049999999999997],[82.95,28.049999999999997],[82.95,27.75]]]},"properties":{"name":"Arghakhanchi","forestCoverHa":102557,"forestLossHa":21,"forestGainHa":533,"riskScore":43,"trend":0.9,"province":"Lumbini"}},{"type":"Feature","geometry":{"type":"Polygon","coordinates":[[[82.85,27.4],[83.25,27.4],[83.25,27.7],[82.85,27.7],[82.85,27.4]]]},"properties":{"name":"Kapilvastu","forestCoverHa":65066,"forestLossHa":68,"forestGainHa":220,"riskScore":82,"trend":-0.1,"province":"Lumbini"}},{"type":"Feature","geometry":{"type":"Polygon","coordinates":[[[83.2,27.4],[83.600000000000009,27.4],[83.600000000000009,27.7],[83.2,27.7],[83.2,27.4]]]},"properties":{"name":"Rupandehi","forestCoverHa":46476,"forestLossHa":74,"forestGainHa":157,"riskScore":87,"trend":-0.4,"province":"Lumbini"}},{"type":"Feature","geometry":{"type":"Polygon","coordinates":[[[82.7,27.950000000000003],[83.100000000000009,27.950000000000003],[83.100000000000009,28.25],[82.7,28.25],[82.7,27.950000000000003]]]},"properties":{"name":"Pyuthan","forestCoverHa":118658,"forestLossHa":21,"forestGainHa":533,"riskScore":28,"trend":0.8,"province":"Lumbini"}},{"type":"Feature","geometry":{"type":"Polygon","coordinates":[[[82.45,28.1],[82.850000000000009,28.1],[82.850000000000009,28.4],[82.45,28.4],[82.45,28.1]]]},"properties":{"name":"Rolpa","forestCoverHa":133074,"forestLossHa":21,"forestGainHa":595,"riskScore":24,"trend":0.8,"province":"Lumbini"}},{"type":"Feature","geometry":{"type":"Polygon","coordinates":[[[82.399999999999991,28.4],[82.8,28.4],[82.8,28.7],[82.399999999999991,28.7],[82.399999999999991,28.4]]]},"properties":{"name":"Rukum East","forestCoverHa":113084,"forestLossHa":19,"forestGainHa":408,"riskScore":18,"trend":0.6,"province":"Lumbini"}},{"type":"Feature","geometry":{"type":"Polygon","coordinates":[[[82.1,27.700000000000003],[82.5,27.700000000000003],[82.5,28],[82.1,28],[82.1,27.700000000000003]]]},"properties":{"name":"Dang","forestCoverHa":205193,"forestLossHa":37,"forestGainHa":752,"riskScore":55,"trend":0.6,"province":"Lumbini"}},{"type":"Feature","geometry":{"type":"Polygon","coordinates":[[[81.6,27.9],[82,27.9],[82,28.2],[81.6,28.2],[81.6,27.9]]]},"properties":{"name":"Banke","forestCoverHa":89619,"forestLossHa":58,"forestGainHa":282,"riskScore":71,"trend":0.1,"province":"Lumbini"}},{"type":"Feature","geometry":{"type":"Polygon","coordinates":[[[81.35,28.1],[81.75,28.1],[81.75,28.4],[81.35,28.4],[81.35,28.1]]]},"properties":{"name":"Bardiya","forestCoverHa":176815,"forestLossHa":35,"forestGainHa":721,"riskScore":44,"trend":0.7,"province":"Lumbini"}},{"type":"Feature","geometry":{"type":"Polygon","coordinates":[[[82.149999999999991,28.450000000000003],[82.55,28.450000000000003],[82.55,28.75],[82.149999999999991,28.75],[82.149999999999991,28.450000000000003]]]},"properties":{"name":"Rukum West","forestCoverHa":134060,"forestLossHa":17,"forestGainHa":470,"riskScore":14,"trend":0.6,"province":"Karnali"}},{"type":"Feature","geometry":{"type":"Polygon","coordinates":[[[81.899999999999991,28.3],[82.3,28.3],[82.3,28.6],[81.899999999999991,28.6],[81.899999999999991,28.3]]]},"properties":{"name":"Salyan","forestCoverHa":144301,"forestLossHa":19,"forestGainHa":533,"riskScore":20,"trend":0.7,"province":"Karnali"}},{"type":"Feature","geometry":{"type":"Polygon","coordinates":[[[81.399999999999991,28.450000000000003],[81.8,28.450000000000003],[81.8,28.75],[81.399999999999991,28.75],[81.399999999999991,28.450000000000003]]]},"properties":{"name":"Surkhet","forestCoverHa":176115,"forestLossHa":26,"forestGainHa":658,"riskScore":32,"trend":0.7,"province":"Karnali"}},{"type":"Feature","geometry":{"type":"Polygon","coordinates":[[[81.5,28.700000000000003],[81.9,28.700000000000003],[81.9,29],[81.5,29],[81.5,28.700000000000003]]]},"properties":{"name":"Dailekh","forestCoverHa":113084,"forestLossHa":17,"forestGainHa":408,"riskScore":22,"trend":0.6,"province":"Karnali"}},{"type":"Feature","geometry":{"type":"Polygon","coordinates":[[[81.95,28.700000000000003],[82.350000000000009,28.700000000000003],[82.350000000000009,29],[81.95,29],[81.95,28.700000000000003]]]},"properties":{"name":"Jajarkot","forestCoverHa":161102,"forestLossHa":17,"forestGainHa":595,"riskScore":18,"trend":0.8,"province":"Karnali"}},{"type":"Feature","geometry":{"type":"Polygon","coordinates":[[[82.55,28.9],[82.95,28.9],[82.95,29.2],[82.55,29.2],[82.55,28.9]]]},"properties":{"name":"Dolpa","forestCoverHa":238173,"forestLossHa":7,"forestGainHa":501,"riskScore":8,"trend":0.5,"province":"Karnali"}},{"type":"Feature","geometry":{"type":"Polygon","coordinates":[[[81.899999999999991,29.35],[82.3,29.35],[82.3,29.65],[81.899999999999991,29.65],[81.899999999999991,29.35]]]},"properties":{"name":"Mugu","forestCoverHa":172615,"forestLossHa":7,"forestGainHa":345,"riskScore":8,"trend":0.4,"province":"Karnali"}},{"type":"Feature","geometry":{"type":"Polygon","coordinates":[[[81.2,29.8],[81.600000000000009,29.8],[81.600000000000009,30.1],[81.2,30.1],[81.2,29.8]]]},"properties":{"name":"Humla","forestCoverHa":141501,"forestLossHa":5,"forestGainHa":282,"riskScore":6,"trend":0.4,"province":"Karnali"}},{"type":"Feature","geometry":{"type":"Polygon","coordinates":[[[81.95,29.05],[82.350000000000009,29.05],[82.350000000000009,29.35],[81.95,29.35],[81.95,29.05]]]},"properties":{"name":"Jumla","forestCoverHa":153739,"forestLossHa":12,"forestGainHa":470,"riskScore":10,"trend":0.6,"province":"Karnali"}},{"type":"Feature","geometry":{"type":"Polygon","coordinates":[[[81.45,28.950000000000003],[81.850000000000009,28.950000000000003],[81.850000000000009,29.25],[81.45,29.25],[81.45,28.950000000000003]]]},"properties":{"name":"Kalikot","forestCoverHa":130974,"forestLossHa":14,"forestGainHa":408,"riskScore":16,"trend":0.5,"province":"Karnali"}},{"type":"Feature","geometry":{"type":"Polygon","coordinates":[[[81.05,28.9],[81.45,28.9],[81.45,29.2],[81.05,29.2],[81.05,28.9]]]},"properties":{"name":"Achham","forestCoverHa":31035,"forestLossHa":21,"forestGainHa":376,"riskScore":26,"trend":0.5,"province":"Sudurpashchim"}},{"type":"Feature","geometry":{"type":"Polygon","coordinates":[[[81,29.4],[81.4,29.4],[81.4,29.7],[81,29.7],[81,29.4]]]},"properties":{"name":"Bajura","forestCoverHa":25811,"forestLossHa":14,"forestGainHa":282,"riskScore":14,"trend":0.4,"province":"Sudurpashchim"}},{"type":"Feature","geometry":{"type":"Polygon","coordinates":[[[80.95,29.700000000000003],[81.350000000000009,29.700000000000003],[81.350000000000009,30],[80.95,30],[80.95,29.700000000000003]]]},"properties":{"name":"Bajhang","forestCoverHa":34017,"forestLossHa":14,"forestGainHa":376,"riskScore":12,"trend":0.6,"province":"Sudurpashchim"}},{"type":"Feature","geometry":{"type":"Polygon","coordinates":[[[80.35,29.8],[80.75,29.8],[80.75,30.1],[80.35,30.1],[80.35,29.8]]]},"properties":{"name":"Darchula","forestCoverHa":29739,"forestLossHa":14,"forestGainHa":313,"riskScore":14,"trend":0.5,"province":"Sudurpashchim"}},{"type":"Feature","geometry":{"type":"Polygon","coordinates":[[[80.35,29.5],[80.75,29.5],[80.75,29.799999999999997],[80.35,29.799999999999997],[80.35,29.5]]]},"properties":{"name":"Baitadi","forestCoverHa":27354,"forestLossHa":17,"forestGainHa":313,"riskScore":20,"trend":0.5,"province":"Sudurpashchim"}},{"type":"Feature","geometry":{"type":"Polygon","coordinates":[[[80.399999999999991,29.200000000000003],[80.8,29.200000000000003],[80.8,29.5],[80.399999999999991,29.5],[80.399999999999991,29.200000000000003]]]},"properties":{"name":"Dadeldhura","forestCoverHa":24618,"forestLossHa":19,"forestGainHa":282,"riskScore":28,"trend":0.4,"province":"Sudurpashchim"}},{"type":"Feature","geometry":{"type":"Polygon","coordinates":[[[80.8,29.1],[81.2,29.1],[81.2,29.4],[80.8,29.4],[80.8,29.1]]]},"properties":{"name":"Doti","forestCoverHa":28896,"forestLossHa":19,"forestGainHa":345,"riskScore":24,"trend":0.5,"province":"Sudurpashchim"}},{"type":"Feature","geometry":{"type":"Polygon","coordinates":[[[80.649999999999991,28.55],[81.05,28.55],[81.05,28.85],[80.649999999999991,28.85],[80.649999999999991,28.55]]]},"properties":{"name":"Kailali","forestCoverHa":36156,"forestLossHa":51,"forestGainHa":408,"riskScore":76,"trend":0.3,"province":"Sudurpashchim"}},{"type":"Feature","geometry":{"type":"Polygon","coordinates":[[[80.149999999999991,28.6],[80.55,28.6],[80.55,28.9],[80.149999999999991,28.9],[80.149999999999991,28.6]]]},"properties":{"name":"Kanchanpur","forestCoverHa":28196,"forestLossHa":42,"forestGainHa":282,"riskScore":73,"trend":0.2,"province":"Sudurpashchim"}}]}
