{"type":"FeatureCollection","features":[{"type":"Feature","geometry":{"type":"MultiPolygon","coordinates":[[[[81.402,30.359],[81.398,30.369],[81.429,30.382],[81.401,30.395],[81.411,30.419],[81.446,30.415],[81.49,30.38],[81.554,30.371],[81.562,30.426],[81.611,30.415],[81.624,30.446],[81.727,30.41],[81.751,30.388],[81.861,30.38],[81.926,30.348],[81.95,30.358],[81.994,30.32],[82.017,30.344],[82.056,30.334],[82.08,30.359],[82.109,30.345],[82.127,30.303],[82.102,30.236],[82.13,30.226],[82.154,30.192],[82.184,30.192],[82.184,30.163],[82.206,30.153],[82.17,30.122],[82.187,30.112],[82.167,30.082],[82.173,30.068],[82.25,30.076],[82.281,30.064],[82.298,30.04],[82.334,30.047],[82.365,30.012],[82.379,30.014],[82.382,30.028],[82.396,30.025],[82.501,29.951],[82.459,29.893],[82.462,29.863],[82.442,29.813],[82.403,29.8],[82.411,29.715],[82.391,29.697],[82.343,29.716],[82.282,29.694],[82.236,29.699],[82.236,29.663],[82.156,29.656],[82.119,29.639],[82.103,29.684],[82.062,29.73],[82.064,29.747],[82.042,29.75],[81.955,29.677],[81.932,29.677],[81.92,29.662],[81.894,29.667],[81.857,29.617],[81.793,29.626],[81.777,29.603],[81.741,29.607],[81.707,29.64],[81.703,29.682],[81.731,29.731],[81.754,29.843],[81.795,29.849],[81.799,29.906],[81.718,29.913],[81.688,29.95],[81.519,29.924],[81.518,29.902],[81.502,29.891],[81.467,29.891],[81.456,29.9],[81.465,29.92],[81.456,29.953],[81.474,29.973],[81.461,30.002],[81.41,30.022],[81.359,30.009],[81.273,30.047],[81.289,30.072],[81.291,30.109],[81.257,30.148],[81.306,30.165],[81.333,30.152],[81.395,30.206],[81.394,30.252],[81.416,30.275],[81.402,30.293],[81.422,30.304],[81.397,30.324],[81.402,30.359]]],[[[82.501,29.951],[82.531,29.97],[82.562,29.955],[82.602,29.891],[82.643,29.871],[82.622,29.838],[82.696,29.854],[82.726,29.836],[82.731,29.805],[82.699,29.793],[82.689,29.763],[82.754,29.765],[82.763,29.73],[82.82,29.718],[82.83,29.652],[82.799,29.627],[82.82,29.562],[82.786,29.517],[82.733,29.504],[82.737,29.465],[82.714,29.425],[82.65,29.388],[82.63,29.396],[82.626,29.422],[82.56,29.411],[82.515,29.423],[82.504,29.493],[82.436,29.444],[82.413,29.451],[82.391,29.498],[82.356,29.49],[82.33,29.509],[82.307,29.496],[82.296,29.443],[82.243,29.437],[82.22,29.41],[82.189,29.406],[82.145,29.431],[82.133,29.466],[82.104,29.459],[82.076,29.483],[82.044,29.482],[82.017,29.465],[81.984,29.471],[81.967,29.447],[81.933,29.438],[81.848,29.461],[81.807,29.457],[81.782,29.507],[81.8,29.554],[81.795,29.588],[81.777,29.603],[81.791,29.625],[81.857,29.617],[81.894,29.667],[81.92,29.662],[81.932,29.677],[81.955,29.677],[82.042,29.75],[82.064,29.747],[82.062,29.73],[82.103,29.684],[82.119,29.639],[82.156,29.656],[82.236,29.663],[82.236,29.699],[82.282,29.694],[82.343,29.716],[82.396,29.699],[82.415,29.727],[82.401,29.753],[82.413,29.772],[82.403,29.8],[82.442,29.813],[82.462,29.863],[82.459,29.893],[82.501,29.951]]],[[[82.828,29.688],[82.865,29.684],[82.894,29.701],[82.935,29.704],[82.954,29.662],[83.009,29.668],[83.08,29.603],[83.118,29.626],[83.155,29.621],[83.158,29.597],[83.175,29.591],[83.196,29.609],[83.218,29.605],[83.222,29.584],[83.28,29.565],[83.256,29.553],[83.269,29.507],[83.281,29.499],[83.318,29.507],[83.347,29.493],[83.344,29.467],[83.37,29.429],[83.414,29.422],[83.426,29.402],[83.412,29.378],[83.418,29.357],[83.444,29.343],[83.441,29.307],[83.466,29.274],[83.486,29.28],[83.514,29.256],[83.519,29.218],[83.568,29.203],[83.582,29.177],[83.609,29.18],[83.632,29.158],[83.667,29.174],[83.682,29.125],[83.621,29.099],[83.635,29.067],[83.617,29.037],[83.617,28.987],[83.597,28.984],[83.505,28.88],[83.504,28.848],[83.486,28.843],[83.488,28.787],[83.391,28.761],[83.363,28.733],[83.278,28.721],[83.236,28.743],[83.213,28.731],[83.176,28.746],[83.114,28.741],[83.083,28.787],[82.982,28.804],[82.948,28.831],[82.877,28.833],[82.868,28.818],[82.819,28.832],[82.762,28.815],[82.741,28.848],[82.702,28.859],[82.708,28.898],[82.651,28.981],[82.595,28.979],[82.57,29],[82.512,29.016],[82.488,29.014],[82.46,28.991],[82.4,29.006],[82.419,29.135],[82.479,29.162],[82.554,29.164],[82.584,29.187],[82.548,29.21],[82.538,29.236],[82.556,29.283],[82.591,29.309],[82.572,29.358],[82.55,29.38],[82.56,29.411],[82.626,29.422],[82.63,29.396],[82.65,29.388],[82.716,29.427],[82.737,29.465],[82.733,29.504],[82.786,29.517],[82.82,29.562],[82.799,29.627],[82.829,29.649],[82.828,29.688]]],[[[82.56,29.411],[82.55,29.38],[82.572,29.358],[82.591,29.309],[82.556,29.283],[82.537,29.246],[82.548,29.21],[82.584,29.189],[82.578,29.176],[82.515,29.157],[82.448,29.155],[82.417,29.132],[82.413,29.096],[82.36,29.115],[82.32,29.109],[82.275,29.123],[82.265,29.102],[82.207,29.092],[82.202,29.076],[82.168,29.065],[82.12,29.012],[82.123,28.994],[82.092,28.973],[82.044,28.987],[82.043,29.008],[82.009,29.032],[82.013,29.094],[81.953,29.128],[81.943,29.149],[81.907,29.173],[81.907,29.21],[81.838,29.255],[81.86,29.274],[81.88,29.272],[81.906,29.315],[81.93,29.33],[81.931,29.438],[81.967,29.447],[81.984,29.471],[82.017,29.465],[82.044,29.482],[82.076,29.483],[82.104,29.459],[82.124,29.469],[82.142,29.457],[82.148,29.428],[82.189,29.406],[82.22,29.41],[82.243,29.437],[82.296,29.443],[82.304,29.49],[82.324,29.509],[82.356,29.49],[82.391,29.498],[82.413,29.451],[82.436,29.444],[82.504,29.493],[82.515,29.423],[82.56,29.411]]],[[[81.931,29.438],[81.93,29.33],[81.906,29.315],[81.88,29.272],[81.86,29.274],[81.838,29.255],[81.904,29.213],[81.914,29.199],[81.909,29.17],[82.019,29.086],[82.002,29.018],[81.953,28.984],[81.891,28.982],[81.861,28.969],[81.822,28.983],[81.785,29.017],[81.72,29.019],[81.692,29.049],[81.613,29.035],[81.569,29.051],[81.582,29.129],[81.552,29.128],[81.526,29.152],[81.499,29.153],[81.483,29.199],[81.499,29.236],[81.495,29.258],[81.47,29.269],[81.555,29.353],[81.568,29.347],[81.587,29.364],[81.629,29.369],[81.659,29.318],[81.745,29.332],[81.806,29.426],[81.807,29.457],[81.848,29.461],[81.931,29.438]]],[[[81.922,28.977],[81.925,28.925],[81.897,28.9],[81.879,28.856],[81.909,28.78],[81.879,28.746],[81.829,28.732],[81.811,28.674],[81.777,28.633],[81.683,28.677],[81.643,28.676],[81.611,28.657],[81.565,28.688],[81.553,28.713],[81.584,28.772],[81.557,28.799],[81.527,28.864],[81.448,28.938],[81.414,28.996],[81.416,29.016],[81.471,29.075],[81.579,29.133],[81.569,29.051],[81.613,29.035],[81.692,29.049],[81.72,29.019],[81.785,29.017],[81.854,28.97],[81.91,28.984],[81.922,28.977]]],[[[82.413,29.096],[82.396,29.021],[82.403,29.003],[82.46,28.991],[82.488,29.014],[82.512,29.016],[82.577,28.989],[82.546,28.982],[82.517,28.956],[82.505,28.892],[82.49,28.873],[82.456,28.87],[82.403,28.84],[82.34,28.783],[82.294,28.783],[82.275,28.704],[82.282,28.693],[82.254,28.711],[82.23,28.687],[82.202,28.68],[82.187,28.622],[82.166,28.612],[82.139,28.625],[82.085,28.616],[82.056,28.642],[82.041,28.634],[82.034,28.643],[81.878,28.646],[81.858,28.692],[81.82,28.721],[81.836,28.737],[81.879,28.746],[81.909,28.78],[81.879,28.856],[81.897,28.9],[81.925,28.925],[81.922,28.977],[81.982,29.001],[82.007,29.031],[82.043,29.008],[82.054,28.979],[82.087,28.972],[82.123,28.994],[82.12,29.012],[82.168,29.065],[82.202,29.076],[82.207,29.092],[82.265,29.102],[82.275,29.123],[82.32,29.109],[82.36,29.115],[82.413,29.096]]],[[[82.576,28.987],[82.66,28.974],[82.708,28.898],[82.702,28.859],[82.741,28.848],[82.762,28.815],[82.819,28.832],[82.868,28.818],[82.877,28.833],[82.948,28.831],[82.982,28.804],[83.083,28.787],[83.11,28.744],[83.143,28.74],[83.15,28.709],[83.143,28.678],[83.122,28.67],[83.115,28.629],[82.965,28.617],[82.961,28.588],[82.989,28.566],[82.979,28.544],[82.923,28.565],[82.916,28.526],[82.88,28.516],[82.911,28.475],[82.833,28.478],[82.736,28.515],[82.631,28.499],[82.549,28.524],[82.527,28.557],[82.497,28.553],[82.463,28.521],[82.392,28.526],[82.373,28.567],[82.338,28.587],[82.247,28.599],[82.187,28.622],[82.202,28.68],[82.23,28.687],[82.254,28.711],[82.282,28.693],[82.275,28.704],[82.294,28.783],[82.34,28.783],[82.403,28.84],[82.456,28.87],[82.49,28.873],[82.505,28.892],[82.517,28.956],[82.546,28.982],[82.576,28.987]]],[[[81.105,28.963],[81.211,28.904],[81.25,28.912],[81.267,28.902],[81.303,28.924],[81.35,28.889],[81.414,28.911],[81.464,28.892],[81.464,28.852],[81.523,28.803],[81.517,28.779],[81.534,28.756],[81.522,28.748],[81.569,28.753],[81.553,28.707],[81.607,28.658],[81.673,28.679],[81.779,28.633],[81.813,28.678],[81.82,28.721],[81.858,28.692],[81.878,28.646],[82.037,28.641],[82.024,28.612],[82.005,28.611],[82.011,28.596],[81.998,28.573],[82.027,28.52],[82.026,28.495],[81.985,28.445],[81.964,28.447],[81.965,28.423],[81.989,28.396],[81.978,28.386],[81.983,28.362],[81.916,28.324],[81.886,28.334],[81.887,28.36],[81.837,28.381],[81.803,28.39],[81.775,28.385],[81.767,28.37],[81.724,28.382],[81.467,28.553],[81.445,28.556],[81.418,28.595],[81.319,28.638],[81.268,28.705],[81.271,28.724],[81.258,28.73],[81.249,28.776],[81.232,28.792],[81.242,28.809],[81.208,28.859],[81.198,28.841],[81.204,28.816],[81.175,28.834],[81.158,28.828],[81.143,28.87],[81.104,28.845],[80.984,28.937],[81.049,28.974],[81.105,28.963]]],[[[82.187,28.622],[82.247,28.599],[82.338,28.587],[82.373,28.567],[82.382,28.531],[82.417,28.529],[82.412,28.498],[82.396,28.492],[82.39,28.464],[82.373,28.459],[82.378,28.432],[82.351,28.423],[82.384,28.374],[82.365,28.336],[82.421,28.242],[82.389,28.189],[82.32,28.221],[82.309,28.25],[82.242,28.241],[82.175,28.254],[82.153,28.242],[82.098,28.257],[82.05,28.241],[82.016,28.16],[82.006,28.159],[81.91,28.233],[81.864,28.241],[81.839,28.275],[81.794,28.281],[81.747,28.316],[81.778,28.386],[81.81,28.389],[81.884,28.362],[81.886,28.334],[81.916,28.324],[81.983,28.362],[81.978,28.386],[81.989,28.396],[81.965,28.423],[81.964,28.447],[81.985,28.445],[82.026,28.495],[82.027,28.52],[81.998,28.573],[82.011,28.596],[82.005,28.611],[82.025,28.613],[82.03,28.637],[82.056,28.642],[82.085,28.616],[82.139,28.625],[82.166,28.612],[82.187,28.622]]]]},"properties":{"name":"Karnali"}},{"type":"Feature","geometry":{"type":"MultiPolygon","coordinates":[[[[81.093,30.055],[81.039,30.014],[81.003,29.932],[81.042,29.883],[81.042,29.842],[81.072,29.824],[81.058,29.758],[80.99,29.74],[80.977,29.722],[80.94,29.735],[80.842,29.687],[80.795,29.686],[80.78,29.701],[80.736,29.706],[80.683,29.704],[80.664,29.68],[80.582,29.686],[80.51,29.644],[80.497,29.623],[80.459,29.624],[80.409,29.606],[80.423,29.636],[80.389,29.672],[80.372,29.746],[80.399,29.757],[80.409,29.79],[80.436,29.802],[80.493,29.791],[80.504,29.816],[80.562,29.863],[80.573,29.916],[80.6,29.953],[80.678,29.957],[80.747,30.007],[80.773,30.056],[80.875,30.125],[80.87,30.174],[80.921,30.236],[81.029,30.241],[81.046,30.211],[81.035,30.202],[81.046,30.18],[81.085,30.147],[81.086,30.103],[81.111,30.09],[81.093,30.055]]],[[[81.093,30.055],[81.129,30.019],[81.152,30.013],[81.204,30.021],[81.22,30.007],[81.243,30.012],[81.254,30.022],[81.242,30.034],[81.273,30.047],[81.359,30.009],[81.41,30.022],[81.461,30.002],[81.474,29.973],[81.456,29.953],[81.465,29.923],[81.456,29.9],[81.488,29.889],[81.509,29.896],[81.557,29.865],[81.565,29.842],[81.548,29.793],[81.562,29.767],[81.546,29.748],[81.515,29.751],[81.518,29.682],[81.426,29.64],[81.402,29.56],[81.367,29.545],[81.335,29.498],[81.294,29.472],[81.306,29.455],[81.251,29.413],[81.16,29.385],[81.133,29.387],[81.133,29.402],[81.017,29.42],[80.944,29.396],[80.91,29.443],[80.889,29.441],[80.848,29.488],[80.821,29.501],[80.794,29.497],[80.778,29.524],[80.744,29.537],[80.751,29.553],[80.775,29.554],[80.789,29.607],[80.764,29.657],[80.795,29.686],[80.842,29.687],[80.94,29.735],[80.977,29.722],[80.99,29.74],[81.036,29.744],[81.062,29.762],[81.072,29.824],[81.042,29.842],[81.042,29.883],[81.003,29.932],[81.039,30.014],[81.093,30.055]]],[[[81.509,29.896],[81.519,29.924],[81.688,29.95],[81.718,29.913],[81.799,29.906],[81.795,29.849],[81.754,29.843],[81.731,29.731],[81.716,29.719],[81.702,29.67],[81.724,29.619],[81.795,29.588],[81.8,29.554],[81.782,29.507],[81.805,29.471],[81.806,29.426],[81.745,29.332],[81.659,29.318],[81.644,29.332],[81.644,29.357],[81.616,29.369],[81.581,29.362],[81.568,29.347],[81.555,29.353],[81.472,29.27],[81.447,29.284],[81.4,29.281],[81.342,29.329],[81.273,29.299],[81.25,29.353],[81.204,29.366],[81.176,29.39],[81.251,29.413],[81.306,29.455],[81.294,29.472],[81.335,29.498],[81.367,29.545],[81.402,29.56],[81.426,29.64],[81.518,29.682],[81.523,29.711],[81.511,29.744],[81.546,29.748],[81.562,29.767],[81.548,29.797],[81.565,29.848],[81.547,29.876],[81.509,29.896]]],[[[80.411,29.603],[80.433,29.618],[80.497,29.623],[80.51,29.644],[80.582,29.686],[80.664,29.68],[80.683,29.704],[80.78,29.701],[80.795,29.686],[80.764,29.65],[80.78,29.64],[80.789,29.607],[80.775,29.554],[80.751,29.553],[80.744,29.537],[80.778,29.524],[80.794,29.497],[80.821,29.501],[80.848,29.488],[80.889,29.441],[80.91,29.442],[80.876,29.41],[80.854,29.407],[80.851,29.376],[80.806,29.364],[80.785,29.364],[80.761,29.396],[80.69,29.424],[80.65,29.383],[80.586,29.397],[80.565,29.415],[80.531,29.39],[80.485,29.402],[80.423,29.373],[80.416,29.357],[80.37,29.348],[80.361,29.325],[80.352,29.333],[80.326,29.308],[80.279,29.346],[80.275,29.391],[80.243,29.411],[80.243,29.443],[80.277,29.457],[80.302,29.45],[80.292,29.479],[80.313,29.482],[80.318,29.5],[80.348,29.515],[80.358,29.531],[80.346,29.552],[80.381,29.561],[80.411,29.603]]],[[[80.91,29.442],[80.944,29.396],[81.017,29.42],[81.133,29.402],[81.133,29.387],[81.156,29.385],[81.137,29.306],[81.099,29.259],[81.118,29.212],[81.031,29.19],[81.046,29.185],[81.113,29.085],[81.131,29.08],[81.125,29.066],[81.148,29.035],[81.152,29.004],[81.105,28.963],[81.049,28.974],[81.023,28.952],[80.955,28.935],[80.937,28.943],[80.897,28.935],[80.883,28.944],[80.885,28.965],[80.855,28.977],[80.827,28.929],[80.809,28.944],[80.804,28.971],[80.762,28.987],[80.751,29.007],[80.657,29.023],[80.6,29.073],[80.56,29.075],[80.527,29.103],[80.569,29.119],[80.572,29.13],[80.555,29.14],[80.584,29.148],[80.594,29.167],[80.706,29.195],[80.703,29.227],[80.759,29.267],[80.746,29.27],[80.736,29.3],[80.772,29.302],[80.759,29.328],[80.763,29.36],[80.851,29.376],[80.854,29.407],[80.876,29.41],[80.91,29.442]]],[[[80.785,29.364],[80.763,29.36],[80.759,29.328],[80.772,29.302],[80.736,29.3],[80.746,29.27],[80.759,29.267],[80.703,29.227],[80.706,29.195],[80.594,29.167],[80.584,29.148],[80.555,29.14],[80.572,29.13],[80.569,29.119],[80.527,29.103],[80.56,29.075],[80.523,29.062],[80.535,29.015],[80.514,28.997],[80.477,28.999],[80.478,29.02],[80.459,29.038],[80.424,29.028],[80.387,29.048],[80.312,29.058],[80.23,29.046],[80.184,29.097],[80.155,29.109],[80.187,29.136],[80.243,29.118],[80.273,29.142],[80.247,29.214],[80.296,29.198],[80.291,29.23],[80.317,29.312],[80.33,29.309],[80.352,29.333],[80.361,29.325],[80.37,29.348],[80.416,29.357],[80.423,29.373],[80.461,29.382],[80.481,29.401],[80.531,29.39],[80.565,29.415],[80.586,29.397],[80.65,29.383],[80.69,29.424],[80.761,29.396],[80.785,29.364]]],[[[81.156,29.385],[81.183,29.388],[81.202,29.367],[81.25,29.353],[81.273,29.299],[81.342,29.329],[81.4,29.281],[81.447,29.284],[81.494,29.261],[81.499,29.236],[81.483,29.199],[81.499,29.153],[81.526,29.152],[81.542,29.132],[81.568,29.126],[81.471,29.075],[81.416,29.016],[81.414,28.994],[81.448,28.938],[81.532,28.857],[81.557,28.799],[81.584,28.772],[81.58,28.754],[81.522,28.748],[81.534,28.756],[81.517,28.779],[81.523,28.803],[81.464,28.852],[81.466,28.89],[81.433,28.907],[81.35,28.889],[81.303,28.924],[81.267,28.902],[81.25,28.912],[81.211,28.904],[81.105,28.963],[81.15,28.995],[81.148,29.035],[81.125,29.066],[81.131,29.08],[81.113,29.085],[81.046,29.185],[81.031,29.19],[81.118,29.212],[81.099,29.259],[81.137,29.306],[81.156,29.385]]],[[[80.504,28.995],[80.519,28.929],[80.497,28.875],[80.514,28.815],[80.549,28.782],[80.54,28.765],[80.554,28.745],[80.542,28.736],[80.561,28.723],[80.542,28.714],[80.55,28.691],[80.503,28.664],[80.518,28.585],[80.531,28.57],[80.522,28.554],[80.474,28.585],[80.449,28.629],[80.363,28.631],[80.323,28.666],[80.314,28.699],[80.261,28.723],[80.254,28.756],[80.211,28.758],[80.126,28.825],[80.075,28.826],[80.061,28.845],[80.072,28.872],[80.052,28.882],[80.053,28.899],[80.108,28.988],[80.132,29.073],[80.155,29.109],[80.184,29.097],[80.23,29.046],[80.312,29.058],[80.387,29.048],[80.424,29.028],[80.459,29.038],[80.478,29.02],[80.477,28.999],[80.504,28.995]]],[[[80.56,29.075],[80.6,29.073],[80.657,29.023],[80.751,29.007],[80.762,28.987],[80.804,28.971],[80.823,28.93],[80.859,28.977],[80.885,28.965],[80.883,28.944],[80.897,28.935],[80.973,28.942],[81.019,28.92],[81.054,28.874],[81.074,28.873],[81.104,28.845],[81.143,28.87],[81.158,28.828],[81.175,28.834],[81.204,28.816],[81.198,28.841],[81.208,28.859],[81.242,28.809],[81.232,28.792],[81.249,28.776],[81.258,28.73],[81.271,28.724],[81.29,28.648],[81.229,28.607],[81.168,28.521],[81.086,28.452],[81.061,28.397],[81.042,28.412],[81.037,28.397],[81.018,28.417],[81.037,28.427],[81.016,28.433],[81.017,28.451],[80.977,28.435],[80.966,28.436],[80.98,28.455],[80.955,28.446],[80.935,28.457],[80.944,28.469],[80.912,28.46],[80.895,28.509],[80.867,28.511],[80.866,28.49],[80.845,28.494],[80.811,28.524],[80.789,28.527],[80.762,28.568],[80.696,28.585],[80.667,28.645],[80.628,28.639],[80.606,28.655],[80.595,28.65],[80.583,28.667],[80.589,28.682],[80.546,28.699],[80.542,28.714],[80.561,28.723],[80.542,28.736],[80.554,28.745],[80.54,28.765],[80.549,28.782],[80.514,28.815],[80.496,28.884],[80.519,28.929],[80.504,28.995],[80.535,29.015],[80.523,29.062],[80.56,29.075]]]]},"properties":{"name":"Sudurpashchim"}},{"type":"Feature","geometry":{"type":"MultiPolygon","coordinates":[[[[83.661,29.178],[83.657,29.203],[83.689,29.215],[83.714,29.243],[83.798,29.25],[83.798,29.279],[83.815,29.301],[83.85,29.3],[83.904,29.325],[83.951,29.318],[83.97,29.331],[84.003,29.314],[83.992,29.299],[84.026,29.287],[84.047,29.301],[84.117,29.283],[84.114,29.252],[84.136,29.24],[84.205,29.242],[84.199,29.214],[84.169,29.199],[84.167,29.182],[84.178,29.132],[84.205,29.121],[84.191,29.048],[84.225,29.053],[84.254,29.024],[84.221,28.915],[84.224,28.891],[84.19,28.899],[84.161,28.873],[84.101,28.886],[84.084,28.849],[84.055,28.84],[84.02,28.801],[83.98,28.828],[83.949,28.831],[83.944,28.792],[83.909,28.777],[83.871,28.726],[83.841,28.726],[83.792,28.691],[83.744,28.686],[83.674,28.576],[83.583,28.584],[83.535,28.687],[83.564,28.747],[83.561,28.766],[83.49,28.79],[83.486,28.843],[83.501,28.844],[83.507,28.883],[83.597,28.984],[83.615,28.983],[83.617,29.037],[83.635,29.067],[83.621,29.099],[83.683,29.128],[83.661,29.178]]],[[[84.223,28.892],[84.263,28.896],[84.327,28.863],[84.343,28.871],[84.358,28.858],[84.392,28.861],[84.409,28.849],[84.402,28.832],[84.438,28.822],[84.441,28.77],[84.494,28.737],[84.487,28.719],[84.524,28.691],[84.519,28.67],[84.546,28.628],[84.554,28.558],[84.574,28.513],[84.557,28.474],[84.498,28.461],[84.447,28.509],[84.429,28.502],[84.399,28.457],[84.341,28.468],[84.31,28.487],[84.28,28.471],[84.2,28.487],[84.142,28.537],[84.088,28.539],[83.977,28.603],[83.88,28.613],[83.836,28.67],[83.793,28.692],[83.841,28.726],[83.868,28.724],[83.89,28.742],[83.909,28.777],[83.944,28.792],[83.949,28.831],[83.98,28.828],[84.02,28.801],[84.055,28.84],[84.084,28.849],[84.101,28.886],[84.161,28.873],[84.183,28.897],[84.223,28.892]]],[[[83.49,28.79],[83.561,28.766],[83.564,28.747],[83.535,28.687],[83.583,28.584],[83.674,28.576],[83.749,28.688],[83.793,28.692],[83.825,28.677],[83.875,28.618],[83.806,28.582],[83.831,28.532],[83.756,28.472],[83.736,28.399],[83.693,28.398],[83.662,28.347],[83.622,28.383],[83.574,28.372],[83.573,28.339],[83.606,28.298],[83.569,28.316],[83.538,28.309],[83.505,28.324],[83.451,28.327],[83.414,28.356],[83.385,28.355],[83.359,28.37],[83.306,28.355],[83.286,28.378],[83.301,28.416],[83.282,28.44],[83.304,28.459],[83.28,28.491],[83.232,28.514],[83.203,28.498],[83.137,28.494],[83.131,28.526],[83.107,28.541],[83.109,28.625],[83.122,28.67],[83.14,28.674],[83.151,28.695],[83.147,28.746],[83.213,28.731],[83.236,28.743],[83.278,28.721],[83.363,28.733],[83.391,28.761],[83.49,28.79]]],[[[84.494,28.737],[84.556,28.752],[84.576,28.735],[84.627,28.735],[84.67,28.685],[84.705,28.671],[84.699,28.637],[84.856,28.575],[84.926,28.596],[84.944,28.598],[84.951,28.583],[84.987,28.594],[84.992,28.615],[85.06,28.683],[85.085,28.672],[85.123,28.685],[85.156,28.647],[85.188,28.643],[85.198,28.628],[85.178,28.597],[85.192,28.57],[85.185,28.533],[85.17,28.532],[85.152,28.486],[85.124,28.487],[85.101,28.457],[85.129,28.393],[85.113,28.349],[85.046,28.322],[85.034,28.277],[84.964,28.214],[84.973,28.189],[84.956,28.128],[84.913,28.103],[84.844,28.114],[84.813,28.041],[84.816,28.006],[84.747,27.955],[84.736,27.901],[84.781,27.814],[84.767,27.818],[84.733,27.796],[84.674,27.816],[84.661,27.847],[84.623,27.877],[84.59,27.878],[84.556,27.859],[84.543,27.912],[84.507,27.913],[84.51,27.924],[84.425,27.956],[84.426,27.978],[84.459,28.004],[84.472,28.044],[84.493,28.061],[84.483,28.087],[84.549,28.103],[84.64,28.192],[84.654,28.294],[84.697,28.358],[84.638,28.443],[84.605,28.448],[84.569,28.487],[84.574,28.513],[84.554,28.558],[84.546,28.628],[84.519,28.67],[84.524,28.691],[84.487,28.719],[84.494,28.737]]],[[[82.884,28.476],[82.916,28.479],[82.88,28.516],[82.916,28.526],[82.918,28.562],[82.979,28.544],[82.989,28.566],[82.958,28.596],[82.969,28.62],[83.049,28.627],[83.065,28.618],[83.108,28.633],[83.116,28.628],[83.107,28.541],[83.131,28.526],[83.137,28.494],[83.203,28.498],[83.232,28.514],[83.3,28.468],[83.304,28.453],[83.282,28.44],[83.301,28.416],[83.286,28.384],[83.291,28.365],[83.312,28.354],[83.359,28.37],[83.385,28.355],[83.414,28.356],[83.451,28.327],[83.505,28.324],[83.538,28.309],[83.578,28.313],[83.606,28.298],[83.623,28.253],[83.674,28.228],[83.674,28.203],[83.646,28.178],[83.64,28.135],[83.591,28.079],[83.56,28.081],[83.514,28.127],[83.461,28.111],[83.453,28.124],[83.422,28.128],[83.411,28.176],[83.383,28.164],[83.361,28.196],[83.28,28.186],[83.183,28.277],[83.134,28.249],[83.099,28.258],[83.101,28.274],[83.068,28.316],[82.96,28.36],[82.943,28.4],[82.922,28.401],[82.915,28.438],[82.891,28.452],[82.884,28.476]]],[[[84.28,28.471],[84.22,28.395],[84.22,28.36],[84.192,28.293],[84.217,28.262],[84.218,28.225],[84.196,28.193],[84.22,28.18],[84.231,28.099],[84.182,28.086],[84.111,28.107],[84.067,28.084],[84.013,28.106],[83.99,28.141],[83.934,28.146],[83.897,28.192],[83.818,28.215],[83.802,28.228],[83.827,28.258],[83.776,28.27],[83.779,28.286],[83.766,28.294],[83.778,28.307],[83.742,28.335],[83.728,28.372],[83.703,28.394],[83.738,28.401],[83.756,28.472],[83.831,28.532],[83.808,28.585],[83.875,28.616],[83.977,28.603],[84.088,28.539],[84.142,28.537],[84.197,28.488],[84.28,28.471]]],[[[84.569,28.487],[84.605,28.448],[84.638,28.443],[84.697,28.358],[84.654,28.294],[84.64,28.192],[84.549,28.103],[84.483,28.087],[84.487,28.058],[84.447,28.104],[84.397,28.129],[84.337,28.127],[84.238,28.078],[84.22,28.127],[84.231,28.137],[84.22,28.18],[84.196,28.193],[84.218,28.225],[84.217,28.262],[84.192,28.293],[84.22,28.36],[84.22,28.395],[84.252,28.444],[84.288,28.481],[84.31,28.487],[84.36,28.462],[84.406,28.459],[84.439,28.509],[84.464,28.501],[84.498,28.461],[84.55,28.47],[84.569,28.487]]],[[[83.606,28.298],[83.573,28.339],[83.574,28.372],[83.622,28.383],[83.662,28.347],[83.7,28.401],[83.728,28.372],[83.742,28.335],[83.778,28.307],[83.766,28.294],[83.779,28.286],[83.776,28.27],[83.827,28.258],[83.802,28.228],[83.801,28.207],[83.762,28.189],[83.768,28.17],[83.711,28.132],[83.709,28.12],[83.739,28.099],[83.709,28.082],[83.722,28.062],[83.7,28.041],[83.701,28.025],[83.654,28.014],[83.645,27.999],[83.567,28.036],[83.57,28.065],[83.64,28.135],[83.646,28.178],[83.677,28.214],[83.674,28.228],[83.616,28.261],[83.606,28.298]]],[[[83.802,28.228],[83.858,28.197],[83.897,28.192],[83.938,28.144],[84.006,28.13],[84.004,28.115],[83.957,28.086],[83.967,28.077],[83.964,28.044],[83.992,28.049],[84.033,28.019],[84.007,28.012],[83.981,27.985],[83.98,27.901],[83.943,27.889],[83.945,27.876],[83.932,27.871],[83.876,27.887],[83.84,27.868],[83.808,27.873],[83.772,27.907],[83.746,27.9],[83.72,27.919],[83.673,27.926],[83.645,27.9],[83.621,27.927],[83.605,27.923],[83.576,27.94],[83.545,27.926],[83.51,27.94],[83.508,27.928],[83.487,27.923],[83.443,27.935],[83.491,27.982],[83.523,27.964],[83.579,27.974],[83.613,28.012],[83.645,27.999],[83.654,28.014],[83.701,28.025],[83.7,28.041],[83.722,28.062],[83.709,28.082],[83.739,28.099],[83.709,28.12],[83.711,28.132],[83.768,28.17],[83.762,28.189],[83.772,28.202],[83.794,28.2],[83.802,28.228]]],[[[84.005,28.116],[84.067,28.084],[84.111,28.107],[84.182,28.086],[84.222,28.1],[84.238,28.078],[84.337,28.127],[84.404,28.128],[84.447,28.104],[84.484,28.058],[84.459,28.004],[84.426,27.978],[84.426,27.954],[84.51,27.924],[84.507,27.913],[84.543,27.912],[84.548,27.872],[84.564,27.857],[84.558,27.84],[84.528,27.835],[84.516,27.815],[84.441,27.818],[84.433,27.791],[84.467,27.773],[84.47,27.757],[84.453,27.763],[84.431,27.742],[84.401,27.772],[84.376,27.779],[84.36,27.751],[84.341,27.744],[84.319,27.765],[84.292,27.838],[84.211,27.84],[84.205,27.85],[84.128,27.845],[84.129,27.859],[84.1,27.856],[84.086,27.871],[84.058,27.852],[83.95,27.871],[83.943,27.889],[83.98,27.901],[83.981,27.985],[84.007,28.012],[84.033,28.019],[83.992,28.049],[83.977,28.04],[83.961,28.047],[83.967,28.077],[83.958,28.09],[84.005,28.116]]],[[[84.031,27.858],[84.058,27.852],[84.086,27.871],[84.1,27.856],[84.129,27.859],[84.128,27.845],[84.205,27.85],[84.211,27.84],[84.292,27.838],[84.329,27.749],[84.36,27.751],[84.368,27.773],[84.385,27.779],[84.421,27.758],[84.432,27.711],[84.387,27.685],[84.357,27.702],[84.337,27.699],[84.203,27.635],[84.108,27.549],[83.926,27.544],[83.924,27.516],[83.958,27.526],[83.972,27.51],[83.942,27.487],[83.936,27.449],[83.874,27.433],[83.876,27.393],[83.908,27.387],[83.908,27.376],[83.87,27.348],[83.618,27.468],[83.589,27.529],[83.597,27.578],[83.588,27.606],[83.624,27.696],[83.653,27.688],[83.66,27.703],[83.681,27.687],[83.722,27.683],[83.728,27.706],[83.749,27.719],[83.832,27.71],[83.844,27.732],[83.927,27.728],[83.991,27.752],[84.029,27.829],[84.031,27.858]]],[[[84.031,27.858],[84.058,27.852],[84.086,27.871],[84.1,27.856],[84.129,27.859],[84.128,27.845],[84.205,27.85],[84.211,27.84],[84.292,27.838],[84.329,27.749],[84.36,27.751],[84.368,27.773],[84.385,27.779],[84.421,27.758],[84.432,27.711],[84.387,27.685],[84.357,27.702],[84.337,27.699],[84.203,27.635],[84.108,27.549],[83.926,27.544],[83.924,27.516],[83.958,27.526],[83.972,27.51],[83.942,27.487],[83.936,27.449],[83.874,27.433],[83.876,27.393],[83.908,27.387],[83.908,27.376],[83.87,27.348],[83.618,27.468],[83.589,27.529],[83.597,27.578],[83.588,27.606],[83.624,27.696],[83.653,27.688],[83.66,27.703],[83.681,27.687],[83.722,27.683],[83.728,27.706],[83.749,27.719],[83.832,27.71],[83.844,27.732],[83.927,27.728],[83.991,27.752],[84.029,27.829],[84.031,27.858]]]]},"properties":{"name":"Gandaki"}},{"type":"Feature","geometry":{"type":"MultiPolygon","coordinates":[[[[82.576,28.987],[82.66,28.974],[82.708,28.898],[82.702,28.859],[82.741,28.848],[82.762,28.815],[82.819,28.832],[82.868,28.818],[82.877,28.833],[82.948,28.831],[82.982,28.804],[83.083,28.787],[83.11,28.744],[83.143,28.74],[83.15,28.709],[83.143,28.678],[83.122,28.67],[83.115,28.629],[82.965,28.617],[82.961,28.588],[82.989,28.566],[82.979,28.544],[82.923,28.565],[82.916,28.526],[82.88,28.516],[82.911,28.475],[82.833,28.478],[82.736,28.515],[82.631,28.499],[82.549,28.524],[82.527,28.557],[82.497,28.553],[82.463,28.521],[82.392,28.526],[82.373,28.567],[82.338,28.587],[82.247,28.599],[82.187,28.622],[82.202,28.68],[82.23,28.687],[82.254,28.711],[82.282,28.693],[82.275,28.704],[82.294,28.783],[82.34,28.783],[82.403,28.84],[82.456,28.87],[82.49,28.873],[82.505,28.892],[82.517,28.956],[82.546,28.982],[82.576,28.987]]],[[[81.289,28.67],[81.325,28.634],[81.418,28.595],[81.445,28.556],[81.467,28.553],[81.648,28.425],[81.767,28.37],[81.747,28.316],[81.702,28.33],[81.669,28.276],[81.534,28.194],[81.52,28.155],[81.501,28.14],[81.507,28.101],[81.523,28.083],[81.506,28.069],[81.482,28.084],[81.485,28.118],[81.454,28.136],[81.436,28.169],[81.378,28.175],[81.372,28.144],[81.32,28.134],[81.329,28.15],[81.304,28.164],[81.325,28.17],[81.32,28.198],[81.238,28.284],[81.238,28.318],[81.215,28.357],[81.061,28.397],[81.086,28.452],[81.168,28.521],[81.229,28.607],[81.287,28.644],[81.289,28.67]]],[[[82.417,28.529],[82.463,28.521],[82.497,28.553],[82.527,28.557],[82.549,28.524],[82.631,28.499],[82.736,28.515],[82.833,28.478],[82.884,28.476],[82.891,28.452],[82.915,28.438],[82.922,28.401],[82.943,28.4],[82.959,28.362],[82.932,28.351],[82.888,28.274],[82.851,28.255],[82.852,28.235],[82.813,28.188],[82.764,28.181],[82.724,28.21],[82.697,28.213],[82.687,28.186],[82.656,28.191],[82.619,28.174],[82.604,28.145],[82.618,28.134],[82.6,28.096],[82.563,28.123],[82.557,28.147],[82.518,28.142],[82.515,28.162],[82.487,28.131],[82.47,28.147],[82.448,28.129],[82.422,28.145],[82.429,28.158],[82.407,28.166],[82.39,28.195],[82.421,28.242],[82.365,28.336],[82.384,28.374],[82.351,28.423],[82.378,28.432],[82.373,28.459],[82.39,28.464],[82.396,28.492],[82.412,28.498],[82.417,28.529]]],[[[82.959,28.362],[82.985,28.358],[83.026,28.325],[83.068,28.316],[83.101,28.274],[83.084,28.235],[83.03,28.235],[83.014,28.219],[83.044,28.199],[83.035,28.159],[83.06,28.121],[83.05,28.104],[83.023,28.112],[82.996,28.093],[82.976,28.066],[82.974,28.009],[82.954,27.998],[83,27.978],[83.018,27.951],[83.016,27.926],[82.945,27.933],[82.919,27.907],[82.83,27.909],[82.807,27.88],[82.792,27.886],[82.788,27.915],[82.756,27.947],[82.777,27.981],[82.749,27.982],[82.734,28.003],[82.699,28.015],[82.699,28.031],[82.72,28.049],[82.627,28.072],[82.6,28.096],[82.618,28.134],[82.604,28.145],[82.634,28.182],[82.67,28.193],[82.687,28.186],[82.697,28.213],[82.724,28.21],[82.764,28.181],[82.813,28.188],[82.852,28.235],[82.851,28.255],[82.888,28.274],[82.932,28.351],[82.959,28.362]]],[[[82.016,28.16],[82.037,28.151],[82.063,28.105],[82.145,28.082],[82.142,28.059],[82.194,28.036],[82.196,27.958],[82.154,27.964],[82.083,27.951],[82.067,27.922],[81.972,27.928],[81.929,27.878],[81.928,27.861],[81.908,27.855],[81.804,27.904],[81.699,27.988],[81.644,27.993],[81.506,28.069],[81.523,28.083],[81.507,28.101],[81.501,28.14],[81.52,28.155],[81.534,28.194],[81.669,28.276],[81.677,28.304],[81.704,28.331],[81.764,28.31],[81.794,28.281],[81.839,28.275],[81.864,28.241],[81.91,28.233],[82.016,28.16]]],[[[83.054,28.114],[83.062,28.13],[83.035,28.159],[83.044,28.199],[83.016,28.222],[83.03,28.235],[83.084,28.235],[83.099,28.258],[83.134,28.249],[83.183,28.277],[83.28,28.186],[83.365,28.195],[83.383,28.164],[83.412,28.175],[83.425,28.126],[83.453,28.124],[83.461,28.111],[83.514,28.127],[83.534,28.115],[83.557,28.083],[83.584,28.078],[83.57,28.065],[83.567,28.036],[83.611,28.011],[83.579,27.974],[83.523,27.964],[83.491,27.982],[83.443,27.936],[83.408,27.933],[83.374,27.956],[83.35,27.952],[83.343,27.925],[83.289,27.925],[83.28,27.935],[83.302,27.965],[83.253,27.988],[83.232,28.048],[83.188,28.078],[83.121,28.056],[83.083,28.064],[83.054,28.114]]],[[[82.016,28.16],[82.05,28.241],[82.102,28.257],[82.153,28.242],[82.175,28.254],[82.242,28.241],[82.312,28.249],[82.32,28.221],[82.379,28.188],[82.392,28.193],[82.407,28.166],[82.429,28.158],[82.422,28.145],[82.448,28.129],[82.47,28.147],[82.487,28.131],[82.515,28.162],[82.522,28.14],[82.557,28.147],[82.563,28.123],[82.625,28.073],[82.72,28.049],[82.699,28.031],[82.705,28.01],[82.734,28.003],[82.749,27.982],[82.777,27.981],[82.756,27.947],[82.811,27.872],[82.795,27.867],[82.806,27.859],[82.758,27.837],[82.757,27.817],[82.788,27.799],[82.88,27.789],[82.807,27.756],[82.785,27.778],[82.738,27.777],[82.702,27.759],[82.706,27.717],[82.667,27.723],[82.541,27.687],[82.45,27.682],[82.204,27.847],[82.126,27.866],[82.086,27.901],[82.069,27.923],[82.076,27.948],[82.154,27.964],[82.196,27.958],[82.194,28.036],[82.142,28.059],[82.145,28.082],[82.063,28.105],[82.037,28.151],[82.016,28.16]]],[[[83.054,28.114],[83.083,28.064],[83.121,28.056],[83.195,28.076],[83.232,28.048],[83.253,27.988],[83.302,27.965],[83.281,27.931],[83.312,27.926],[83.299,27.911],[83.336,27.878],[83.291,27.829],[83.235,27.823],[83.274,27.787],[83.18,27.785],[83.15,27.815],[83.075,27.836],[83.024,27.83],[83.005,27.799],[82.934,27.785],[82.788,27.799],[82.759,27.815],[82.758,27.837],[82.807,27.86],[82.795,27.867],[82.811,27.872],[82.83,27.909],[82.919,27.907],[82.945,27.933],[83.002,27.933],[83.014,27.922],[83.019,27.947],[83.006,27.971],[82.954,27.998],[82.974,28.009],[82.976,28.066],[82.996,28.093],[83.023,28.112],[83.05,28.104],[83.054,28.114]]],[[[83.312,27.926],[83.343,27.925],[83.35,27.952],[83.374,27.956],[83.408,27.933],[83.432,27.94],[83.487,27.923],[83.508,27.928],[83.51,27.94],[83.525,27.926],[83.534,27.938],[83.545,27.926],[83.576,27.94],[83.605,27.923],[83.621,27.927],[83.637,27.901],[83.657,27.902],[83.678,27.926],[83.72,27.919],[83.746,27.9],[83.772,27.907],[83.814,27.871],[83.847,27.868],[83.848,27.879],[83.86,27.872],[83.876,27.887],[83.922,27.87],[83.972,27.873],[84.02,27.852],[84.023,27.861],[84.029,27.829],[83.991,27.752],[83.927,27.728],[83.844,27.732],[83.832,27.71],[83.749,27.719],[83.728,27.706],[83.727,27.685],[83.7,27.682],[83.668,27.694],[83.647,27.722],[83.577,27.706],[83.392,27.747],[83.373,27.734],[83.333,27.766],[83.274,27.768],[83.273,27.79],[83.235,27.823],[83.291,27.829],[83.334,27.875],[83.299,27.911],[83.312,27.926]]],[[[82.88,27.794],[82.934,27.785],[83.001,27.798],[83.024,27.83],[83.075,27.836],[83.15,27.815],[83.174,27.787],[83.209,27.786],[83.235,27.617],[83.209,27.561],[83.235,27.52],[83.22,27.443],[83.232,27.43],[83.221,27.417],[83.188,27.454],[83.036,27.449],[82.957,27.469],[82.929,27.501],[82.737,27.504],[82.751,27.524],[82.741,27.549],[82.756,27.589],[82.738,27.612],[82.738,27.644],[82.716,27.663],[82.702,27.759],[82.744,27.779],[82.785,27.778],[82.807,27.756],[82.88,27.794]]],[[[83.209,27.786],[83.274,27.787],[83.274,27.768],[83.333,27.766],[83.373,27.734],[83.392,27.747],[83.577,27.706],[83.652,27.72],[83.657,27.689],[83.624,27.696],[83.588,27.606],[83.597,27.578],[83.589,27.529],[83.618,27.468],[83.394,27.478],[83.403,27.458],[83.386,27.439],[83.408,27.415],[83.385,27.374],[83.339,27.334],[83.29,27.339],[83.271,27.36],[83.274,27.381],[83.221,27.417],[83.232,27.43],[83.22,27.443],[83.235,27.52],[83.209,27.561],[83.235,27.617],[83.209,27.786]]]]},"properties":{"name":"Lumbini"}},{"type":"Feature","geometry":{"type":"MultiPolygon","coordinates":[[[[85.123,28.335],[85.181,28.325],[85.202,28.339],[85.254,28.294],[85.286,28.286],[85.344,28.302],[85.349,28.288],[85.377,28.277],[85.419,28.327],[85.509,28.333],[85.596,28.306],[85.612,28.255],[85.663,28.301],[85.656,28.317],[85.668,28.343],[85.687,28.349],[85.688,28.382],[85.711,28.385],[85.732,28.342],[85.746,28.245],[85.795,28.191],[85.774,28.173],[85.719,28.172],[85.663,28.152],[85.63,28.127],[85.613,28.152],[85.541,28.165],[85.493,28.14],[85.488,28.104],[85.436,28.08],[85.404,28.04],[85.347,28.011],[85.33,27.986],[85.308,27.985],[85.278,27.962],[85.183,27.974],[85.187,28.019],[85.137,28.033],[85.147,28.065],[85.124,28.102],[85.162,28.119],[85.159,28.14],[85.197,28.167],[85.22,28.231],[85.185,28.273],[85.138,28.303],[85.123,28.335]]],[[[85.109,28.344],[85.167,28.275],[85.2,28.259],[85.22,28.222],[85.197,28.167],[85.161,28.143],[85.16,28.117],[85.124,28.102],[85.122,28.081],[85.079,28.068],[85.028,28.028],[84.99,28.028],[85.016,27.99],[85.008,27.912],[85.025,27.844],[85.014,27.809],[85.044,27.814],[85.053,27.798],[85.123,27.761],[85.261,27.779],[85.268,27.748],[85.237,27.741],[85.19,27.679],[85.146,27.668],[85.043,27.71],[84.95,27.686],[84.908,27.698],[84.882,27.668],[84.831,27.691],[84.801,27.669],[84.789,27.711],[84.757,27.733],[84.683,27.727],[84.672,27.738],[84.689,27.765],[84.658,27.803],[84.674,27.816],[84.733,27.796],[84.767,27.818],[84.781,27.814],[84.734,27.922],[84.747,27.955],[84.816,28.006],[84.813,28.041],[84.844,28.114],[84.913,28.103],[84.956,28.128],[84.973,28.189],[84.964,28.214],[85.034,28.277],[85.046,28.322],[85.077,28.342],[85.109,28.344]]],[[[85.444,28.084],[85.488,28.104],[85.493,28.14],[85.541,28.165],[85.613,28.152],[85.63,28.127],[85.719,28.172],[85.774,28.173],[85.796,28.198],[85.845,28.183],[85.871,28.122],[85.896,28.11],[85.901,28.054],[85.977,27.993],[85.945,27.942],[85.996,27.911],[86.063,27.897],[86.012,27.833],[86.041,27.753],[86.03,27.741],[85.966,27.739],[85.939,27.708],[85.941,27.669],[85.912,27.667],[85.916,27.64],[85.889,27.614],[85.878,27.612],[85.814,27.669],[85.733,27.674],[85.706,27.64],[85.678,27.699],[85.656,27.715],[85.608,27.745],[85.57,27.75],[85.545,27.785],[85.501,27.774],[85.474,27.783],[85.451,27.817],[85.465,27.85],[85.455,27.872],[85.477,27.888],[85.489,27.92],[85.482,27.961],[85.493,27.974],[85.496,28.029],[85.444,28.084]]],[[[86.518,27.957],[86.562,27.916],[86.545,27.813],[86.49,27.809],[86.443,27.829],[86.422,27.809],[86.415,27.772],[86.427,27.722],[86.344,27.685],[86.302,27.609],[86.205,27.582],[86.161,27.54],[86.148,27.501],[86.121,27.474],[86.103,27.501],[86.011,27.501],[85.993,27.511],[85.994,27.546],[85.973,27.598],[85.945,27.595],[85.936,27.56],[85.922,27.575],[85.852,27.58],[85.916,27.64],[85.912,27.667],[85.941,27.669],[85.939,27.708],[85.966,27.739],[86.03,27.741],[86.041,27.753],[86.012,27.833],[86.069,27.911],[86.126,27.931],[86.079,28.018],[86.095,28.061],[86.081,28.09],[86.127,28.097],[86.142,28.125],[86.179,28.144],[86.178,28.171],[86.192,28.165],[86.222,28.101],[86.205,28.079],[86.235,27.972],[86.291,27.976],[86.316,27.947],[86.335,27.963],[86.347,27.938],[86.376,27.939],[86.41,27.907],[86.441,27.907],[86.468,27.928],[86.47,27.946],[86.518,27.957]]],[[[85.127,28.086],[85.147,28.065],[85.137,28.033],[85.187,28.019],[85.183,27.974],[85.278,27.962],[85.404,28.04],[85.436,28.08],[85.473,28.061],[85.496,28.029],[85.493,27.974],[85.482,27.961],[85.489,27.92],[85.477,27.888],[85.455,27.872],[85.465,27.85],[85.45,27.814],[85.308,27.813],[85.27,27.779],[85.128,27.761],[85.056,27.796],[85.044,27.814],[85.014,27.809],[85.025,27.844],[85.008,27.912],[85.016,27.99],[84.99,28.028],[85.028,28.028],[85.079,28.068],[85.127,28.086]]],[[[84.674,27.816],[84.655,27.799],[84.689,27.765],[84.673,27.735],[84.692,27.722],[84.757,27.733],[84.789,27.711],[84.798,27.683],[84.769,27.658],[84.749,27.651],[84.739,27.66],[84.723,27.644],[84.741,27.611],[84.733,27.582],[84.716,27.566],[84.693,27.566],[84.685,27.55],[84.694,27.457],[84.721,27.43],[84.653,27.428],[84.63,27.448],[84.563,27.461],[84.537,27.415],[84.551,27.407],[84.54,27.403],[84.542,27.385],[84.509,27.381],[84.475,27.354],[84.444,27.37],[84.296,27.384],[84.277,27.399],[84.277,27.421],[84.257,27.449],[84.234,27.455],[84.214,27.441],[84.207,27.47],[84.15,27.486],[84.146,27.517],[84.103,27.518],[84.099,27.496],[84.07,27.477],[84.056,27.444],[84.024,27.433],[83.934,27.447],[83.942,27.487],[83.972,27.51],[83.958,27.526],[83.924,27.516],[83.926,27.544],[84.108,27.549],[84.203,27.635],[84.337,27.699],[84.357,27.702],[84.387,27.685],[84.427,27.704],[84.426,27.739],[84.453,27.763],[84.474,27.762],[84.433,27.791],[84.446,27.821],[84.516,27.815],[84.528,27.835],[84.552,27.835],[84.595,27.878],[84.649,27.86],[84.674,27.816]]],[[[86.359,27.527],[86.268,27.457],[86.227,27.392],[86.219,27.336],[86.243,27.291],[86.206,27.253],[86.155,27.244],[86.129,27.269],[86.092,27.274],[86.077,27.294],[86.058,27.292],[86.005,27.339],[85.987,27.34],[85.967,27.389],[85.952,27.382],[85.927,27.406],[85.837,27.436],[85.813,27.456],[85.818,27.472],[85.802,27.502],[85.832,27.54],[85.833,27.578],[85.922,27.575],[85.936,27.56],[85.945,27.595],[85.973,27.598],[85.994,27.546],[85.993,27.511],[86.011,27.501],[86.103,27.501],[86.121,27.474],[86.148,27.501],[86.161,27.54],[86.205,27.582],[86.302,27.609],[86.344,27.685],[86.427,27.722],[86.415,27.772],[86.422,27.809],[86.443,27.829],[86.49,27.809],[86.57,27.805],[86.575,27.758],[86.552,27.71],[86.539,27.694],[86.495,27.694],[86.461,27.672],[86.438,27.608],[86.378,27.568],[86.359,27.527]]],[[[85.261,27.779],[85.308,27.813],[85.451,27.817],[85.472,27.784],[85.499,27.777],[85.5,27.74],[85.524,27.728],[85.417,27.721],[85.354,27.667],[85.304,27.69],[85.284,27.644],[85.294,27.605],[85.268,27.573],[85.233,27.586],[85.238,27.619],[85.206,27.63],[85.227,27.657],[85.19,27.679],[85.237,27.741],[85.268,27.748],[85.261,27.779]]],[[[85.501,27.774],[85.545,27.785],[85.57,27.75],[85.608,27.745],[85.656,27.715],[85.678,27.699],[85.708,27.639],[85.733,27.674],[85.814,27.669],[85.876,27.617],[85.851,27.579],[85.831,27.576],[85.834,27.545],[85.802,27.502],[85.82,27.451],[85.804,27.425],[85.772,27.398],[85.733,27.41],[85.716,27.403],[85.7,27.374],[85.704,27.343],[85.658,27.336],[85.639,27.352],[85.569,27.34],[85.537,27.356],[85.521,27.35],[85.502,27.376],[85.477,27.369],[85.47,27.387],[85.423,27.402],[85.415,27.417],[85.421,27.444],[85.411,27.448],[85.444,27.48],[85.441,27.538],[85.4,27.551],[85.392,27.568],[85.414,27.616],[85.491,27.648],[85.509,27.688],[85.525,27.695],[85.529,27.724],[85.5,27.74],[85.501,27.774]]],[[[85.524,27.728],[85.525,27.695],[85.469,27.634],[85.42,27.62],[85.358,27.669],[85.417,27.721],[85.524,27.728]]],[[[85.19,27.679],[85.227,27.657],[85.206,27.63],[85.238,27.619],[85.233,27.586],[85.267,27.576],[85.238,27.542],[85.251,27.529],[85.24,27.499],[85.267,27.453],[85.406,27.403],[85.442,27.403],[85.479,27.377],[85.43,27.336],[85.425,27.318],[85.435,27.291],[85.482,27.268],[85.49,27.228],[85.508,27.219],[85.51,27.198],[85.491,27.199],[85.482,27.181],[85.504,27.177],[85.494,27.166],[85.466,27.164],[85.448,27.186],[85.353,27.221],[85.268,27.225],[85.251,27.249],[85.188,27.246],[85.105,27.328],[85.09,27.362],[85.019,27.355],[85.004,27.365],[84.934,27.365],[84.839,27.416],[84.814,27.418],[84.8,27.436],[84.738,27.444],[84.724,27.435],[84.694,27.457],[84.684,27.546],[84.693,27.566],[84.716,27.566],[84.733,27.582],[84.741,27.611],[84.723,27.644],[84.739,27.66],[84.749,27.651],[84.769,27.658],[84.789,27.684],[84.801,27.669],[84.837,27.69],[84.882,27.668],[84.908,27.698],[84.95,27.686],[85.043,27.71],[85.146,27.668],[85.19,27.679]]],[[[85.42,27.62],[85.392,27.566],[85.4,27.551],[85.441,27.538],[85.444,27.48],[85.411,27.448],[85.421,27.444],[85.421,27.407],[85.406,27.403],[85.267,27.453],[85.24,27.499],[85.251,27.529],[85.238,27.542],[85.294,27.605],[85.284,27.644],[85.3,27.686],[85.314,27.691],[85.361,27.669],[85.42,27.62]]],[[[85.82,27.451],[85.853,27.426],[85.927,27.406],[85.952,27.382],[85.967,27.389],[85.987,27.34],[86.005,27.339],[86.058,27.292],[86.077,27.294],[86.092,27.274],[86.129,27.269],[86.152,27.244],[86.197,27.256],[86.227,27.238],[86.267,27.261],[86.344,27.229],[86.345,27.206],[86.39,27.181],[86.37,27.144],[86.349,27.146],[86.329,27.115],[86.309,27.109],[86.361,27.098],[86.354,27.07],[86.385,27.034],[86.36,26.966],[86.29,26.953],[86.263,26.917],[86.261,26.931],[86.187,26.982],[86.118,27.014],[85.993,27.026],[85.937,27.123],[85.889,27.145],[85.866,27.128],[85.843,27.144],[85.837,27.165],[85.819,27.161],[85.73,27.193],[85.639,27.141],[85.491,27.144],[85.506,27.175],[85.482,27.181],[85.491,27.199],[85.51,27.198],[85.508,27.219],[85.49,27.228],[85.48,27.27],[85.432,27.295],[85.43,27.336],[85.491,27.378],[85.521,27.35],[85.537,27.356],[85.569,27.34],[85.639,27.352],[85.658,27.336],[85.681,27.347],[85.698,27.341],[85.709,27.348],[85.7,27.374],[85.716,27.403],[85.777,27.4],[85.82,27.451]]]]},"properties":{"name":"Bagmati"}},{"type":"Feature","geometry":{"type":"MultiPolygon","coordinates":[[[[86.518,27.957],[86.516,28.001],[86.535,28.05],[86.565,28.068],[86.564,28.106],[86.58,28.113],[86.607,28.101],[86.609,28.078],[86.635,28.073],[86.688,28.109],[86.738,28.105],[86.765,28.078],[86.754,28.066],[86.756,28.039],[86.777,28.038],[86.791,28.021],[86.869,28.027],[86.892,28],[86.927,27.99],[86.937,27.964],[86.989,27.953],[86.972,27.905],[86.994,27.864],[86.985,27.828],[87.012,27.813],[86.992,27.794],[86.983,27.753],[87.014,27.728],[86.992,27.691],[86.988,27.652],[86.956,27.607],[86.955,27.574],[86.971,27.549],[86.946,27.512],[86.965,27.482],[86.933,27.444],[86.877,27.431],[86.822,27.44],[86.753,27.398],[86.684,27.395],[86.683,27.37],[86.657,27.343],[86.582,27.345],[86.535,27.399],[86.46,27.453],[86.441,27.491],[86.425,27.487],[86.403,27.518],[86.359,27.527],[86.378,27.568],[86.438,27.608],[86.46,27.671],[86.495,27.694],[86.539,27.694],[86.575,27.758],[86.57,27.805],[86.544,27.814],[86.562,27.916],[86.518,27.957]]],[[[87.666,27.808],[87.67,27.77],[87.655,27.759],[87.643,27.711],[87.622,27.706],[87.609,27.673],[87.562,27.696],[87.531,27.594],[87.512,27.596],[87.487,27.566],[87.448,27.399],[87.519,27.297],[87.48,27.251],[87.467,27.198],[87.41,27.163],[87.407,27.138],[87.361,27.192],[87.264,27.179],[87.212,27.238],[87.2,27.263],[87.211,27.268],[87.203,27.302],[87.186,27.318],[87.194,27.354],[87.13,27.402],[87.137,27.453],[87.106,27.464],[87.063,27.441],[87.045,27.449],[87.013,27.436],[86.946,27.46],[86.965,27.482],[86.947,27.517],[86.971,27.549],[86.955,27.574],[86.956,27.607],[86.988,27.652],[86.992,27.691],[87.014,27.728],[86.983,27.753],[86.992,27.794],[87.012,27.813],[86.985,27.828],[86.994,27.864],[86.972,27.905],[86.99,27.954],[87.04,27.949],[87.108,27.874],[87.113,27.845],[87.167,27.825],[87.227,27.821],[87.262,27.852],[87.319,27.827],[87.361,27.829],[87.373,27.846],[87.422,27.86],[87.431,27.845],[87.406,27.834],[87.453,27.824],[87.487,27.846],[87.541,27.846],[87.565,27.868],[87.586,27.856],[87.592,27.821],[87.613,27.813],[87.637,27.835],[87.667,27.838],[87.666,27.808]]],[[[87.666,27.808],[87.734,27.812],[87.78,27.865],[87.786,27.898],[87.827,27.921],[87.835,27.95],[87.858,27.947],[87.865,27.912],[87.932,27.917],[87.979,27.888],[88.033,27.905],[88.064,27.887],[88.087,27.892],[88.1,27.866],[88.141,27.881],[88.205,27.839],[88.177,27.82],[88.197,27.788],[88.181,27.746],[88.159,27.735],[88.147,27.667],[88.124,27.643],[88.112,27.605],[88.08,27.58],[88.061,27.512],[88.046,27.498],[88.073,27.435],[88.042,27.413],[88.004,27.325],[87.958,27.286],[87.871,27.278],[87.844,27.286],[87.781,27.273],[87.698,27.291],[87.681,27.269],[87.661,27.268],[87.555,27.285],[87.502,27.31],[87.46,27.371],[87.448,27.405],[87.487,27.566],[87.512,27.596],[87.531,27.594],[87.562,27.696],[87.609,27.673],[87.622,27.706],[87.643,27.711],[87.655,27.759],[87.67,27.77],[87.666,27.808]]],[[[86.359,27.527],[86.403,27.518],[86.425,27.487],[86.441,27.491],[86.46,27.453],[86.535,27.399],[86.576,27.346],[86.65,27.341],[86.682,27.369],[86.687,27.314],[86.671,27.298],[86.674,27.274],[86.638,27.259],[86.623,27.239],[86.561,27.227],[86.52,27.192],[86.43,27.148],[86.42,27.168],[86.345,27.206],[86.341,27.231],[86.267,27.261],[86.227,27.238],[86.205,27.252],[86.243,27.291],[86.219,27.336],[86.24,27.416],[86.268,27.457],[86.359,27.527]]],[[[86.946,27.46],[87.013,27.436],[87.045,27.449],[87.063,27.441],[87.106,27.464],[87.137,27.453],[87.13,27.402],[87.193,27.356],[87.186,27.318],[87.209,27.282],[87.207,27.246],[87.275,27.172],[87.274,27.143],[87.184,27.068],[87.2,26.999],[87.164,26.962],[87.154,26.919],[87.132,26.923],[87.01,26.888],[86.953,26.904],[86.975,26.965],[86.961,26.981],[86.971,27.008],[86.953,27.03],[86.971,27.048],[86.954,27.081],[86.902,27.11],[86.928,27.157],[86.919,27.177],[86.931,27.202],[86.903,27.255],[86.92,27.268],[86.953,27.266],[86.988,27.306],[86.954,27.336],[86.951,27.353],[86.935,27.357],[86.934,27.387],[86.914,27.409],[86.91,27.432],[86.946,27.46]]],[[[86.911,27.433],[86.917,27.399],[86.934,27.387],[86.935,27.357],[86.988,27.308],[86.953,27.266],[86.92,27.268],[86.903,27.255],[86.931,27.202],[86.919,27.177],[86.928,27.157],[86.902,27.11],[86.966,27.064],[86.971,27.046],[86.953,27.025],[86.971,27.008],[86.961,26.981],[86.975,26.965],[86.953,26.904],[86.812,26.873],[86.779,26.887],[86.746,27.025],[86.699,27.098],[86.67,27.122],[86.589,27.154],[86.542,27.138],[86.514,27.113],[86.47,27.105],[86.429,27.139],[86.445,27.161],[86.52,27.192],[86.561,27.227],[86.623,27.239],[86.638,27.259],[86.674,27.274],[86.671,27.298],[86.687,27.314],[86.684,27.395],[86.753,27.398],[86.826,27.441],[86.911,27.433]]],[[[88.073,27.435],[88.051,27.405],[88.046,27.373],[88.067,27.334],[88.036,27.284],[88.016,27.216],[88.02,27.17],[87.993,27.128],[87.995,27.106],[87.921,27.099],[87.783,27.016],[87.739,27.015],[87.689,26.97],[87.684,26.947],[87.698,26.908],[87.688,26.882],[87.665,26.869],[87.589,26.86],[87.562,26.887],[87.532,26.89],[87.528,26.954],[87.495,26.981],[87.543,27.019],[87.54,27.045],[87.596,27.102],[87.702,27.147],[87.72,27.187],[87.751,27.205],[87.683,27.278],[87.698,27.291],[87.781,27.273],[87.844,27.286],[87.948,27.281],[88.004,27.325],[88.042,27.413],[88.073,27.435]]],[[[87.519,27.297],[87.68,27.27],[87.747,27.22],[87.751,27.205],[87.72,27.187],[87.702,27.147],[87.596,27.102],[87.543,27.049],[87.543,27.019],[87.507,26.984],[87.44,26.969],[87.445,27.003],[87.4,27.082],[87.405,27.154],[87.467,27.198],[87.48,27.251],[87.519,27.297]]],[[[87.407,27.138],[87.4,27.082],[87.445,27.003],[87.44,26.969],[87.496,26.981],[87.528,26.954],[87.531,26.891],[87.562,26.887],[87.591,26.86],[87.504,26.855],[87.488,26.868],[87.454,26.865],[87.435,26.886],[87.373,26.845],[87.326,26.854],[87.311,26.871],[87.26,26.866],[87.24,26.88],[87.212,26.865],[87.168,26.877],[87.15,26.933],[87.2,26.999],[87.182,27.063],[87.274,27.143],[87.269,27.178],[87.288,27.19],[87.317,27.182],[87.361,27.192],[87.407,27.138]]],[[[86.434,27.15],[86.431,27.133],[86.45,27.131],[86.47,27.105],[86.514,27.113],[86.542,27.138],[86.589,27.154],[86.674,27.119],[86.746,27.025],[86.772,26.905],[86.792,26.879],[86.828,26.873],[86.93,26.905],[87.01,26.888],[87.137,26.924],[87.166,26.906],[87.17,26.88],[87.129,26.806],[87.051,26.75],[87.028,26.718],[86.973,26.714],[86.965,26.736],[86.94,26.74],[86.916,26.767],[86.902,26.727],[86.852,26.691],[86.829,26.712],[86.796,26.709],[86.758,26.686],[86.736,26.711],[86.681,26.688],[86.663,26.709],[86.665,26.745],[86.605,26.776],[86.602,26.819],[86.563,26.886],[86.455,26.887],[86.278,26.933],[86.312,26.962],[86.358,26.964],[86.385,27.034],[86.354,27.07],[86.361,27.098],[86.31,27.111],[86.329,27.115],[86.349,27.146],[86.37,27.144],[86.388,27.182],[86.434,27.15]]],[[[87.995,27.106],[88.023,27.088],[88.039,27.038],[88.08,27.035],[88.116,26.987],[88.135,26.984],[88.122,26.951],[88.146,26.923],[88.14,26.896],[88.178,26.864],[88.171,26.846],[88.185,26.783],[88.168,26.784],[88.155,26.805],[88.151,26.776],[88.141,26.766],[88.134,26.774],[88.117,26.733],[88.093,26.764],[88.099,26.802],[88.082,26.786],[88.066,26.789],[88.051,26.75],[88.028,26.766],[88.021,26.748],[87.99,26.738],[87.984,26.719],[87.946,26.72],[87.926,26.696],[87.928,26.664],[87.882,26.682],[87.844,26.658],[87.817,26.67],[87.811,26.689],[87.783,26.684],[87.762,26.706],[87.69,26.734],[87.68,26.783],[87.658,26.798],[87.662,26.814],[87.598,26.862],[87.641,26.862],[87.688,26.882],[87.698,26.908],[87.684,26.947],[87.689,26.97],[87.742,27.017],[87.783,27.016],[87.921,27.099],[87.995,27.106]]],[[[87.028,26.718],[87.008,26.666],[86.968,26.618],[86.914,26.488],[86.894,26.485],[86.896,26.463],[86.845,26.442],[86.772,26.459],[86.731,26.423],[86.69,26.452],[86.573,26.497],[86.541,26.54],[86.497,26.543],[86.483,26.56],[86.507,26.595],[86.508,26.723],[86.527,26.749],[86.541,26.888],[86.577,26.872],[86.602,26.819],[86.605,26.776],[86.665,26.745],[86.663,26.709],[86.681,26.688],[86.736,26.711],[86.758,26.686],[86.796,26.709],[86.829,26.712],[86.852,26.691],[86.902,26.727],[86.916,26.767],[86.94,26.74],[86.965,26.736],[86.973,26.714],[87.028,26.718]]],[[[87.591,26.86],[87.651,26.829],[87.659,26.796],[87.68,26.783],[87.689,26.74],[87.685,26.713],[87.647,26.658],[87.66,26.621],[87.642,26.59],[87.644,26.514],[87.681,26.412],[87.605,26.38],[87.549,26.419],[87.462,26.438],[87.369,26.407],[87.36,26.359],[87.347,26.349],[87.313,26.369],[87.271,26.371],[87.265,26.408],[87.243,26.415],[87.242,26.473],[87.259,26.534],[87.291,26.548],[87.292,26.592],[87.306,26.616],[87.292,26.66],[87.343,26.74],[87.325,26.785],[87.35,26.815],[87.35,26.847],[87.376,26.845],[87.435,26.886],[87.454,26.865],[87.488,26.868],[87.504,26.855],[87.591,26.86]]],[[[87.35,26.847],[87.35,26.815],[87.325,26.785],[87.343,26.74],[87.292,26.66],[87.306,26.616],[87.292,26.592],[87.29,26.545],[87.253,26.523],[87.243,26.415],[87.173,26.403],[87.098,26.445],[87.072,26.585],[87.048,26.586],[87.017,26.533],[86.938,26.519],[86.93,26.489],[86.914,26.488],[86.968,26.618],[87.008,26.666],[87.032,26.727],[87.129,26.806],[87.168,26.877],[87.212,26.865],[87.24,26.88],[87.26,26.866],[87.311,26.871],[87.35,26.847]]],[[[88.185,26.783],[88.192,26.74],[88.166,26.64],[88.147,26.619],[88.136,26.576],[88.118,26.57],[88.098,26.508],[88.111,26.473],[88.101,26.436],[88.038,26.383],[88.034,26.365],[88.002,26.366],[87.997,26.392],[87.934,26.417],[87.922,26.431],[87.929,26.444],[87.906,26.449],[87.914,26.456],[87.895,26.485],[87.863,26.463],[87.851,26.437],[87.794,26.468],[87.765,26.409],[87.748,26.418],[87.738,26.407],[87.698,26.434],[87.678,26.42],[87.644,26.514],[87.642,26.59],[87.66,26.621],[87.648,26.661],[87.69,26.734],[87.762,26.706],[87.783,26.684],[87.811,26.689],[87.817,26.67],[87.844,26.658],[87.882,26.682],[87.928,26.664],[87.926,26.696],[87.946,26.72],[87.984,26.719],[87.99,26.738],[88.021,26.748],[88.028,26.766],[88.051,26.75],[88.066,26.789],[88.082,26.786],[88.099,26.802],[88.093,26.764],[88.117,26.733],[88.134,26.774],[88.141,26.766],[88.151,26.776],[88.155,26.805],[88.168,26.784],[88.185,26.783]]]]},"properties":{"name":"Koshi"}},{"type":"Feature","geometry":{"type":"MultiPolygon","coordinates":[[[[84.724,27.435],[84.738,27.444],[84.797,27.437],[84.904,27.375],[84.956,27.365],[84.946,27.338],[84.977,27.272],[84.952,27.161],[84.961,27.127],[84.892,27.028],[84.92,27.032],[84.917,27.019],[84.874,26.98],[84.839,27.022],[84.816,27.018],[84.796,26.995],[84.785,27.016],[84.762,27.003],[84.649,27.046],[84.651,27.073],[84.678,27.1],[84.691,27.23],[84.626,27.336],[84.48,27.358],[84.509,27.381],[84.542,27.385],[84.54,27.403],[84.551,27.407],[84.537,27.415],[84.563,27.461],[84.63,27.448],[84.653,27.428],[84.724,27.435]]],[[[84.956,27.365],[85.019,27.355],[85.09,27.362],[85.157,27.268],[85.196,27.243],[85.251,27.249],[85.268,27.225],[85.233,27.135],[85.198,27.111],[85.204,27.07],[85.189,27.048],[85.202,27.049],[85.208,27.03],[85.187,27.018],[85.172,26.982],[85.17,26.938],[85.183,26.927],[85.179,26.892],[85.167,26.888],[85.182,26.868],[85.106,26.871],[85.083,26.853],[85.034,26.853],[85.033,26.871],[85.057,26.888],[85.01,26.895],[85.001,26.912],[84.969,26.917],[84.976,26.94],[84.964,26.958],[84.874,26.98],[84.917,27.019],[84.92,27.032],[84.892,27.028],[84.961,27.127],[84.952,27.161],[84.977,27.272],[84.946,27.338],[84.956,27.365]]],[[[85.268,27.225],[85.353,27.221],[85.448,27.186],[85.466,27.164],[85.506,27.175],[85.474,27.115],[85.455,27.106],[85.455,27.092],[85.414,27.056],[85.396,27.022],[85.407,26.936],[85.335,26.813],[85.344,26.798],[85.331,26.785],[85.329,26.746],[85.209,26.761],[85.18,26.81],[85.197,26.863],[85.167,26.888],[85.179,26.892],[85.183,26.927],[85.17,26.938],[85.172,26.982],[85.187,27.018],[85.208,27.03],[85.202,27.049],[85.189,27.048],[85.204,27.07],[85.198,27.111],[85.233,27.135],[85.268,27.225]]],[[[85.819,27.161],[85.792,27.141],[85.783,27.075],[85.75,27.035],[85.711,26.907],[85.681,26.864],[85.686,26.842],[85.648,26.85],[85.633,26.873],[85.59,26.847],[85.581,26.86],[85.495,26.799],[85.452,26.781],[85.408,26.791],[85.377,26.761],[85.329,26.746],[85.331,26.785],[85.344,26.798],[85.335,26.813],[85.407,26.936],[85.396,27.022],[85.491,27.144],[85.639,27.141],[85.73,27.193],[85.819,27.161]]],[[[85.947,27.093],[85.939,27.082],[85.947,27.062],[85.917,27.042],[85.929,27.031],[85.913,27.011],[85.891,26.898],[85.923,26.85],[85.912,26.787],[85.895,26.764],[85.892,26.704],[85.909,26.68],[85.901,26.654],[85.866,26.632],[85.854,26.607],[85.838,26.613],[85.824,26.602],[85.806,26.624],[85.751,26.638],[85.736,26.653],[85.728,26.685],[85.736,26.796],[85.722,26.823],[85.686,26.842],[85.681,26.864],[85.711,26.907],[85.75,27.035],[85.783,27.075],[85.797,27.148],[85.832,27.167],[85.866,27.128],[85.889,27.145],[85.937,27.123],[85.947,27.093]]],[[[86.263,26.917],[86.221,26.89],[86.156,26.934],[86.134,26.903],[86.164,26.848],[86.15,26.771],[86.199,26.701],[86.196,26.671],[86.151,26.609],[86.139,26.627],[86.025,26.665],[85.96,26.652],[85.947,26.616],[85.928,26.618],[85.85,26.573],[85.855,26.62],[85.901,26.654],[85.909,26.68],[85.892,26.704],[85.895,26.764],[85.912,26.787],[85.923,26.85],[85.891,26.898],[85.913,27.011],[85.929,27.031],[85.917,27.042],[85.947,27.062],[85.943,27.09],[85.967,27.078],[85.993,27.026],[86.118,27.014],[86.187,26.982],[86.261,26.931],[86.263,26.917]]],[[[86.263,26.917],[86.279,26.933],[86.455,26.887],[86.537,26.886],[86.527,26.749],[86.508,26.723],[86.507,26.595],[86.483,26.562],[86.487,26.548],[86.396,26.584],[86.392,26.595],[86.344,26.605],[86.337,26.618],[86.252,26.612],[86.234,26.589],[86.197,26.594],[86.191,26.614],[86.151,26.609],[86.196,26.671],[86.199,26.701],[86.15,26.771],[86.164,26.848],[86.134,26.903],[86.156,26.934],[86.221,26.89],[86.263,26.917]]]]},"properties":{"name":"Madhesh"}}]}